"ManufacturerId","Name","NameAbbr","Address1","Address2","City","State","Zip","Country","Phone","Fax","TollFree","WebAddress","ContactName","ContactPhone","ContactEmail","CreatedUserId","CreatedDate","ModifiedUserId","ModifiedDate","DeletedFlag","DirectoryFlag","AssociateFlag","CertificateFlag","CertifiedFlag","ProductType","UUID"
114,"BCI Burke Co., LLC",,"660 Van Dyne Road",,"Fond Du Lac","WI","54936          ","United States","(920) 921-9220","(920) 921-9566",,"http://www.bciburke.com","Scott Liebelt ","               ","sliebelt@bciburke.com",2,"06/02/2004 08:35:29 AM",0,"11/22/2010 10:25:19 AM",0,1,0,1,1,"Either",
116,"Paris Equipment Mfg Ltd (formerly Belair)",,"259 Third Concession Road","Box 490","Princeton, ON","  ","N0J 1V0","Canada","800-387-6318","(519) 442-0111",,"http://www.peml.com","Dave Hammer","519-458-4882","dhammer@peml.com",2,"06/02/2004 08:35:29 AM",0,"05/17/2012 11:08:58 AM",0,0,0,0,0,"Equipment",
117,"Berliner Seilfabrik GMBH & Co.",,"Lengeder Strasse 4",,"Berlin","  ","13407          ","Germany","+493041472455","+493041472433",,"http://www.berliner-seilfabrik.com","David Kohler","+493041472455","david.koehler@berliner-seilfabrik.com",2,"06/02/2004 08:35:29 AM",0,"11/22/2010 10:25:51 AM",0,1,0,1,1,"Equipment",
118,"Blue Imp Recreational Products",,"724 14th Street SW",,"Medicine Hat, AB","  ","T1A 4V7        ","Canada","(800) 661-1462","(403) 529-0851",,"http://www.blueimp.com","Mark Koch","(403) 526-4170 ","mark@blueimp.com",2,"06/02/2004 08:35:29 AM",0,"10/19/2011 03:43:57 PM",0,1,0,1,1,"Equipment",
124,"Columbia Carolina Div.",,"PO Box 1148","369 Columbia Carolina Road","Old Fort","NC","28762          ","United States","(828) 724-4191","(828) 724-3205",,"http://www.columbiaforestproducts.com","Rick Marsh","(828) 775-4520","rmarsh@columbiaforestproducts.com",2,"06/02/2004 08:35:29 AM",0,"08/16/2011 08:01:26 AM",0,1,0,1,1,"Surfacing",
125,"Corocord Raumnetz GmbH",,"Eichborndamm 167",,"Berlin","  ","13403          ","Germany","+49-30-408988-0","+49-30-408988-77",,"http://www.corocord.com","Torsten Frank","+49-30-408988-0","safety@corocord.de. ",2,"06/02/2004 08:35:29 AM",0,"11/22/2010 10:29:15 AM",0,1,0,1,1,"Equipment",
128,"ECORE International",,"715 Fountain Avenue",,"Lancaster","PA","17608          ","United States","(717) 824-8237","(717) 295-3414",,"http://www.ecoreintl.com ","Wanda Welch","(717) 824-8237","wanda.welch@ecoreintl.com",2,"06/02/2004 08:35:29 AM",0,"11/22/2010 10:33:49 AM",0,1,0,1,1,"Surfacing",
130,"Environmental Molding Concepts",,"14050 Day Street",,"Moreno Valley","CA","92553","United States","(909) 383-7049","(909) 383-7055",,"http://www.emcmolding.com","Sako Beudjekian, CEO","951-214-6590 Ex","sbeudjekian@basrecycling.com",2,"06/02/2004 08:35:29 AM",0,"11/22/2010 10:34:22 AM",0,1,0,1,1,"Surfacing",
132,"Equipements Recreatifs Jambette Inc.",,"700 Des Calfats",,"Levis, Quebec","  ","G6Y 9E6","Canada","(418) 837-8246","(418) 837-2916",,"http://www.jambette.com","Dania Laflamme","(418) 837-8246 ","dania.laflamme@jambette.com",2,"06/02/2004 08:35:29 AM",0,"04/20/2011 09:39:37 AM",0,1,0,1,1,"Equipment",
133,"Fibar Group, LLC",,"80 Business Park Drive, Suite 300",,"Armonk","NY","10504-1705     ","United States","(800) 342-2721 / (914) 273-8770 ","(914) 273-8659","800-342-2721","http://www.fibar.com","Henry Mustacato","(914) 273-8770","henry@fibar.com",2,"06/02/2004 08:35:29 AM",0,"11/22/2010 10:37:29 AM",0,1,0,1,1,"Surfacing",
135,"Garick Corporation",,"13600 Broadway Avenue",,"Cleveland","OH","44125          ","United States","(800) 242-7425 x311","(216) 475-1636",,"http://www.garick.com","Timothy Belby","(216) 475-8812 ","timothy.belby@garick.com",2,"06/02/2004 08:35:29 AM",0,"04/07/2011 07:58:07 AM",0,1,0,1,0,"Surfacing",
139,"Henderson Recreation Equipment Ltd.",,"11 Gilbertson Drive","PO Box 68","Simcoe","  ","N3Y 4K8        ","Canada","(800) 265-5462 ","(519) 426-1132",,"http://www.henderson-recreation.com","Andrew Henderson","(519) 426-9380 ","andrew@hendersonplay.ca",2,"06/02/2004 08:35:29 AM",0,"06/07/2011 11:42:39 AM",0,1,0,1,1,"Equipment",
141,"Jensen Swing Products, Inc.",,"9327 Wheatlands Road",,"Santee","CA","92071          ","United States","(619) 258-8300","(619) 258-7429",,"http://www.jensenswing.com"," Charvet Ciraolo","(619) 258-8300","charvet@jensenswing.com",2,"06/02/2004 08:35:29 AM",0,"11/22/2010 10:54:24 AM",0,1,0,0,0,"Equipment",
144,"Playground and Shade Structures, Inc.",,"505 Tradesmens Park Drive",,"Hutto","TX","78634","United States","(800) 245-8449","(512) 642-4275","(800) 245-8449","http://www.kidstruction.com","William Wolfe","(512) 442-3502 ","bill@kidstruction.com",2,"06/02/2004 08:35:29 AM",0,"11/22/2010 11:37:02 AM",0,1,0,0,0,"Equipment",
145,"KOMPAN A/S",,"C.F. Tietgens Boulevard 32C",,"Odense SØ","  ","DK 5220        ","Denmark","(800) 426-9788",,,"http://www.kompan.com","Joan Pederson","+45 21 37 43 80","joaped@kompan.com",2,"06/02/2004 08:35:29 AM",0,"08/18/2011 08:12:16 AM",0,1,0,1,1,"Equipment",
147,"Playcraft Systems",,"123 North Valley Drive",,"Grants Pass","OR","97526          ","United States","(800) 333-8519","(541) 955-6130",,"http://www.playcraftsystems.com","Mei-Mei Kong","(541) 955-9199 ","mei-mei@krausscraftinc.com",2,"06/02/2004 08:35:29 AM",0,"11/22/2010 11:26:06 AM",0,1,0,1,1,"Equipment",
148,"Kuhns Bros. Lumber Co., Inc.",,"434 Swartz Road",,"Lewisburg","PA","17837          ","United States","(570) 568-1412","(570) 568-1187",,"http://www.kuhnslumber.com/","Timothy Kuhns","               ","timkuhns@kuhnslumber.com",2,"06/02/2004 08:35:29 AM",0,"11/22/2010 11:26:46 AM",0,1,0,1,1,"Surfacing",
150,"Landscape Structures Inc.",,"601 7th Street South",,"Delano","MN","55328          ","United States","(888) 4FUNLSI","(763) 972-3185",,"http://www.playlsi.com","Steven King","               ","info@playlsi.com",2,"06/02/2004 08:35:29 AM",0,"11/22/2010 11:27:07 AM",0,1,0,1,1,"Equipment",
151,"Playpower LT Farmington,Inc.formerly Little Tikes",,"878 East US Hwy 60",,"Monett","MO","65708","United States","417-235-6717",,,"http://www.ltcps.com","Lloyd Reese","417-235-6717","lreese@ltcps.com",2,"06/02/2004 08:35:29 AM",0,"11/22/2010 11:37:37 AM",0,1,0,1,1,"Equipment",
152,"Matta Products Limited",,"P.O. Box 5361",,"Santa Barbara","CA","93150          ","United States","(909) 949-7588","(909) 949-2585",,"http://www.playmatta.com","Paul Thomsen","               ","paul.thomsen@mattaproducts.com",2,"06/02/2004 08:35:29 AM",0,"11/22/2010 11:28:06 AM",0,0,0,0,0,"Surfacing",
154,"Miracle Recreation Equipment",,"878 East Highway 60",,"Monett","MO","65708","United States","(417) 235-6917","(417) 235-3551",,"http://www.miracle-recreation.com/","Teri Fields","               ","tfields@miraclerec.com",2,"06/02/2004 08:35:29 AM",0,"11/22/2010 11:28:37 AM",0,1,0,1,1,"Equipment",
155,"Supreme Forest Products, Inc. dba New England Play",,"49 De Paolo Road",,"Southington","CT","06489","United States","(800) 888-7529","(860) 485-1646",,"http://www.newenglandplaygroundsurfacing.com","Dorlene Anson","800-888-7529   ","danson@supremeindustries.com    ",2,"06/02/2004 08:35:29 AM",0,"03/28/2012 04:27:29 PM",0,1,0,1,1,"Surfacing",
162,"Pallet Express, Inc.",,"6306 Old 421 Road","PO Box 1998","LIberty","NC","27298","United States","(800) 220-0987","(336) 622-4444",,"http://www.palletexpress.com","Lynn Bell","(336) 622-2266 ","lbell@palletexpress.com",2,"06/02/2004 08:35:29 AM",0,"11/22/2010 11:30:30 AM",0,1,0,1,1,"Surfacing",
163,"Pallet Resource of NC, Inc. dba Kid Cushion",,"4572 Highway 150 North",,"Lexington","NC","27295          ","United States","(336) 731-8338","(336) 731-3302",,"http://www.kidcushion.com/","David Grimes","(336) 731-8338","dgrimes@prnc.com",2,"06/02/2004 08:35:29 AM",0,"11/22/2010 11:30:41 AM",0,1,0,1,1,"Surfacing",
164,"Play & Park Structures",,"150 Playcore Drive SE",,"Fort Payne","AL","35967-5241     ","United States","(256) 997-5241","(256) 997-5421",,"http://www.parkstructures.com","Wes Sutton","(256) 997-5241","wsutton@playcore.com",2,"06/02/2004 08:35:29 AM",0,"11/22/2010 11:36:04 AM",0,1,0,1,1,"Either",
166,"PlayMart, Inc.",,"170 Allens Way",,"West Somerset","KY","42501          ","United States","(606) 679-2572",,,"http://www.playmart.com","Luke Dunlap","(606) 679-2572","luke@playmart.com",2,"06/02/2004 08:35:29 AM",0,"02/14/2012 03:55:52 PM",0,1,0,1,1,"Equipment",
170,,,,,,,,,,,,,,"               ",,2,"06/02/2004 08:35:29 AM",0,"10/19/2011 03:14:37 PM",0,0,0,0,0,"Equipment",
173,"Progressive Design Playgrounds",,"2458 South Santa Fe Avenue",,"Vista","CA","92084          ","United States","(760) 597-5990","(760) 597-5991",,"http://www.pdplay.com/","John Ogden","               ","sales@pdplay.com",2,"06/02/2004 08:35:29 AM",0,"05/23/2012 10:54:25 AM",0,0,0,0,0,"Equipment",
175,"Ultimate RB, Inc.",,"904 NE 10th Avenue",,"McMinnville","OR","97128","United States","(314) 432-3200","(503) 434-4455",,"http://www.ultimaterb.com","Robert Cunningham","314-432-3200","rcunningham@accellacorp.com",2,"06/02/2004 08:35:29 AM",0,"11/22/2010 11:43:26 AM",0,1,0,1,1,"Surfacing",
176,"Recreation Creations, LLC",,"215 West Mechanic Street",,"Hillsdale","MI","49242          ","United States","(517) 439-1591","(517) 439-1878",,"http://www.rec-creations.com","Mike Cramer","(517) 439-15","mcramer@rec-creations.com",2,"06/02/2004 08:35:29 AM",0,"11/22/2010 11:43:48 AM",0,0,0,0,0,"Equipment",
177,"Robertson Industries, Inc., A Playcore Company",,"2414 West 12th Street, Suite 5",,"Tempe","AZ","85281","United States","(602) 340-8873","(602) 340-0402",,"http://www.totturf.com","Richard Hawley","(602) 340-8873","rhawley@playcore.com",2,"06/02/2004 08:35:29 AM",0,"11/22/2010 11:51:23 AM",0,1,0,1,1,"Surfacing",
178,"RockCraft",,"#8 - 1865 Sargent Avenue",,"Winnipeg, MB","  ","R3H OE4        ","Canada","(866) 786-1635","(204) 774-6099",,"http://www.rockcraft.net","Ken Crozier","(866) 786-1635 ","ken.crozier@crozier.ca",2,"06/02/2004 08:35:29 AM",0,"02/07/2012 12:08:37 PM",0,0,0,1,0,"Equipment",
179,"Rubberecycle LLC",,"1985 Rutgers University Boulevard",,"Lakewood","NJ","08701          ","United States","(732) 363-0600","(732) 370-4247",,"http://www.rubberecycle.com","Keith Sacks","(732) 363-0600 ","Keith@rubbermulch.com",2,"06/02/2004 08:35:29 AM",0,"11/22/2010 11:45:22 AM",0,1,0,1,1,"Surfacing",
180,"EcoPlay Playgrounds, Inc.",,"4452 Winifred Drive",,"Marietta","GA","30066          ","United States","(770) 591-7000","(770) 926-4194",,"www.ecoplayplaygrounds.com","Mike Strub","(770) 591-7000 ","mikes@ecoplayplaygrounds.com",2,"06/02/2004 08:35:29 AM",0,"11/22/2010 11:45:55 AM",0,1,0,1,1,"Equipment",
182,"Sof'Fall",,"PO Box 667",,"Draper","UT","84020          ","United States","(801) 523-2452","(801) 501-0762",,"http://sof-solutions.com/","Elouise Bird","801-523-2452   ","ebird@sof-solutions.com",2,"06/02/2004 08:35:29 AM",0,"11/22/2010 11:47:11 AM",0,1,0,1,1,"Surfacing",
183,"Sofsurfaces Inc.",,"4393 Discovery Line",,"Petrolia","  ","N0N 1R0        ","Canada","(800) 263-2363","(519) 882-2697",,"http://sofsurfaces.com/","Matt Wemple","               ","wemplem@sofsurfaces.com",2,"06/02/2004 08:35:29 AM",0,"11/22/2010 11:47:25 AM",0,1,0,1,1,"Surfacing",
185,"SPI Industries, Inc.",,"RR #2, Box 10",,"Shallow Lake","  ","N0H 2K0        ","Canada","(519) 935-2211","(519) 935-2174",,"http://www.spiplastics.com","Lisa Sanders","(519) 935-2211","lsanders@spiplastics.com",2,"06/02/2004 08:35:29 AM",0,"11/22/2010 11:48:43 AM",0,1,0,0,0,"Equipment",
190,"Surface America",,"P.O. Box 157",,"Williamsville","NY","14231          ","United States","(716) 632-8413","(716) 632-8324",,"http://www.surfam.com","Thomas Discipio","(716) 632-8413","tdd@surfam.com",2,"06/02/2004 08:35:29 AM",0,"11/22/2010 11:49:53 AM",0,1,0,1,1,"Surfacing",
192,"Meglio Unionland Co., Ltd.",,"18, Eunhyeon Gongdan 4 Guil","Samdong-Myeon, Ulju-Gun","Ulsan","  ","689-933","Korea","82 52 265 5999","82 52 265 7227",,"http://www.unionland.com","Joo Yeul Han","82 52 265 5999","t02@unionland.com",2,"06/02/2004 08:35:29 AM",0,"11/22/2010 11:51:58 AM",0,0,0,0,0,"Equipment",
196,"Zeager Bros. Inc.",,"4000 East Harrisburg Pike",,"Middletown","PA","17057          ","United States","(717) 944-1308","(717) 944-7681",,"http://www.zeager.com","Jeff Mrakovich","717-944-7481","jeff@zeager.com",2,"06/02/2004 08:35:29 AM",0,"11/22/2010 11:41:48 AM",0,1,0,0,1,"Surfacing",
200,"Kidstuff Playsystems",,"5400 Miller Avenue",,"Gary","IN","46403          ","United States","(800) 255-0153","219-938-3340",,"http://www.kidstuffplaysystems.com","Richard Hagelberg","219-938-3331","rhagelberg@kidstuffplaysystems.com",2,"06/02/2004 08:35:29 AM",0,"11/22/2010 11:25:16 AM",0,1,0,1,1,"Equipment",
201,"Kidz Zone Playsystems, Inc.",,"P.O. Box 987","217 Murphy Avenue","Ferguson","KY","42533          ","United States","(606) 678-9777","(606) 676-0016",,"http://goearthscapes.com/","Kerry Morrow","606-678-9777   ","kerrywmorrow@gmail.com",2,"06/02/2004 08:35:29 AM",0,"05/24/2011 02:39:46 PM",0,0,0,0,0,"Equipment",
205,"Western Organics Inc.",,"420 E. Southern Avenue",,"Tempe","AZ","85282          ","United States","(602) 792-0275","(480) 921-3151",,"http://www.gro-well.com","Lloyd Porter","(602) 792-0275 ","lporter@gro-well.com",2,"06/02/2004 08:35:29 AM",0,"06/01/2012 01:55:44 PM",0,0,0,0,0,"Surfacing",
206,"Playworld Systems",,"1000 Buffalo Road",,"Lewisburg","PA","17837          ","United States","(570) 522-9800","(570) 522-3030",,"http://www.playworldsystems.com","Matt Weaver","(570) 522-9800 ","mattw@playworldsystems.com",2,"06/02/2004 08:35:29 AM",0,"11/22/2010 11:39:32 AM",0,1,0,1,1,"Equipment",
210,"SportsPlay Equipment, Inc.",,"8505 Delmar Blvd., Ste G",,"University City","MO","63124","United States","(800) 727-8180","(314) 389-9034",,"http://www.sportsplayinc.com","Scott Meyer","(314) 389-4140 ","smeyer@sportsplayinc.com",2,"06/02/2004 08:35:29 AM",0,"11/22/2010 11:49:00 AM",0,1,0,1,1,"Equipment",
213,"Big Toys, Inc.",,"150 Playcore Drive SE",,"Fort Payne","AL","35967","United States","256-997-5241","256-997-5421",,"http://www.playcore.com","Wes Sutton","256-997-5241","wsutton@playcore.com",2,"06/02/2004 08:35:29 AM",0,"03/26/2012 08:14:43 AM",0,1,0,1,1,"Equipment",
214,"GameTime",,"PO Box 680121",,"Fort Payne","AL","35968          ","United States","(256) 997-5241",,,"http://www.gametime.com","Wes Sutton","(256) 997-5241","wsutton@playcore.com",2,"06/02/2004 08:35:29 AM",0,"11/22/2010 10:47:11 AM",0,1,0,1,1,"Either",
215,"WOW Playgrounds",,"210 Industrial Court",,"Carrollton","GA","30117          ","United States","(770) 834-6120","(770) 834-6495",,"http://www.wowrecreation.com","Sherri Pope","770-834-6120   ","spope@siibrands.com",2,"06/05/2004 12:00:00 AM",0,"11/22/2010 11:42:10 AM",0,0,0,0,0,"Equipment",
216,"Witmer Mulch",,"1402 Eshelman Mill Road",,"Willow Street","PA","17584          ","United States","(717) 464-5209","(717) 464-1434",,,"Kelli Rath","(717) 464-5209","klrath@aol.com",2,"06/10/2004 08:41:08 AM",0,"11/22/2010 11:56:47 AM",0,1,0,1,1,"Surfacing",
219,"Parker Bark Company, Inc.",,"PO Box 158",,"Rose Hill","NC","28458          ","United States","(800) 346-4627","(910) 289-2100",,"http://www.parkerbark.com","Susannah Parker Reynolds","(910) 289-3672 ","susannahlparker@yahoo.com",2,"06/10/2004 08:41:08 AM",0,"11/22/2010 11:31:59 AM",0,1,0,1,1,"Surfacing",
221,"Hardwood Mulch Corporation",,"15610 James River Drive",,"Disputanta","VA","23842-8703     ","United States","(804) 458-7500","(804) 458-7327",,"http://www.hardwoodmulchcorporation.com","Garland Anderson","(804) 458-7500 ","hardwoodmulch9@yahoo.com",2,"06/10/2004 08:41:08 AM",0,"11/22/2010 10:52:28 AM",0,1,0,1,1,"Surfacing",
223,"National Hardscape Supply",,"PO Box 51070 ",,"Colorado Springs","CO","80949   ","United States","844-629-5855","970-323-0500",,"http://www.nhsupply.com/","Clifford Scroggs","(844) 629-5855","scroggschip@nhsupply.com",0,"07/28/2004 09:18:21 AM",0,"11/22/2010 11:48:19 AM",0,1,0,1,1,"Surfacing",
224,"New Waverly Ventures, dba Landscapers Pride",,"PO Box 368",,"New Waverly","TX","77358          ","United States","(936) 295-2870","(936) 295-2210",,"http://www.landscaperspride.com","Suzy Fredergill","               ","suzy@landscaperspride.com",0,"07/28/2004 09:25:52 AM",0,"06/06/2011 03:00:46 PM",0,1,0,1,1,"Surfacing",
225,"Park Games Equipment (M) Sdn Bhd",,"305 Block B, Phileo Damansara 2","Off Jalan Damansara","Petaling Jaya, Selangor","  ","46350          ","Malaysia","+603-7491 0278","+603-7491 1803",,"http://www.parkgames.com.my","Veronica Yap","+603-7491 0278 ","jade.tan@parkgames.com.my",0,"07/28/2004 09:35:30 AM",0,"11/22/2010 11:31:14 AM",0,1,0,0,0,"Equipment",
233,"Soil Express, Ltd.",,"166 W. Frontier Parkway",,"Prosper","TX","75078          ","United States","(972) 347-2994","(972) 347-2997",,"http://www.soilexpress.com","Linda Hudspeth","(972) 347-2994 ","linda@soilexpress.com",0,"09/07/2004 03:47:17 PM",0,"11/22/2010 11:48:00 AM",0,1,0,1,1,"Surfacing",
239,"SpectraTurf",,"555 South Promenade Avenue, Suite 103",,"Corona","CA","92879","United States","(800) 875-5788","(951) 734-3630",,"http://www.spectraturf.com","Lisa Anderson","951-736-3579","landerson@spectraturf.comn@spectraturf.com",0,"11/01/2004 02:54:48 PM",0,"11/22/2010 11:48:32 AM",0,1,0,1,1,"Surfacing",
242,"Bailey Bark Materials, Inc.",,"3336 FM 2259",,"Nacogdoches","TX","75961          ","United States","(800) 209-8017","(936) 564-1648",,"http://www.baileybarkmaterials.com","Brad Bailey","(936) 564-3746 ","becky.bbmi@bellsouth.net",0,"01/21/2005 02:13:16 PM",0,"11/22/2010 10:25:11 AM",0,1,0,1,1,"Surfacing",
246,"Dynamo Playgrounds",,"5-733 Industrielle",,"Rockland, ON","  ","K4K 1T2        ","Canada","(800) 790-0034","(613) 446-0034",,"http://www.dynamoplaygrounds.com","Rob Lockhart","(613) 446-0300 ","rob@dynamoindustries.com",0,"02/10/2005 08:17:22 AM",0,"02/08/2012 08:42:30 AM",0,1,0,1,1,"Equipment",
249,"Recreation PlaySystems-A Division of RTS Companies",,"1027 Industrial Place",,"St. Clements, ON","  ","N0B 2M0        ","Canada","(800) 663-2803","519-699-0027",,"http://www.rtscompaniesinc.com","Graham Lobban","(519) 699-0022 ","globban@rtscompaniesinc.com",0,"03/29/2005 12:50:53 PM",0,"05/21/2012 10:30:30 AM",0,0,0,0,0,"Equipment",
250,"Sport Surface Specialties, LLC",,"6091 Seneca Street",,"Elma","NY","14059          ","United States","716-652-2039","716-805-1001",,"http://www.sportsurface.net/","Chris Kunkel","716-652-2039   ","chris@sportsurface.net",0,"07/05/2005 10:38:32 AM",0,"09/19/2011 09:26:13 AM",0,1,0,1,1,"Surfacing",
254,"Childsafe Products",,"645 Broadway",,"Amityville","NY","11701          ","United States","(800) 434-5616","(631) 841-0562",,,"Nickolas Demetrakas","(631) 841-0363 ","azdeme@cox.net",0,"07/18/2005 03:43:05 PM",0,"03/13/2012 03:25:27 PM",0,0,0,0,0,"Surfacing",
256,"Weaver Mulch, LLC",,"3186 Strasburg Road",,"Coatsville","PA","19320          ","United States","(610) 383-6818","(610) 383-7401",,,"Brian Olinger","(610) 383-6818 ","wm.briano@emypeople.net",0,"08/24/2005 12:17:09 PM",0,"11/22/2010 11:56:13 AM",0,1,0,1,1,"Surfacing",
260,"Sport Systems, Eagle Play Structures",,"10078 Tyler Place",,"Ijamsville","MD","211754         ","United States","(800) 609-9966","(301) 607-4484",,"http://www.sport-systems.com","Perry Perret","(301) 607-4747 ","pperret@sport-systems.com",0,"08/24/2005 01:54:29 PM",0,"05/16/2012 09:01:16 AM",0,1,0,1,1,"Equipment",
261,"Simply Mulch",,"1900 Veterans Memorial Lane",,"Bowling Green","KY","42101          ","United States","(270) 842-4011","(270) 842-4078",,"http://www.simplymulchky.com","Tonya Fulgham","(270) 842-4011","simply_mulch@yahoo.com",0,"09/08/2005 04:55:30 PM",0,"11/22/2010 11:46:50 AM",0,1,0,1,1,"Surfacing",
270,"Picerno-Giordano Construction, LLC",,"200 Market Street",,"Kenilworth","NJ","07033          ","United States","(908) 241-4331","(908) 241-7854",,"http://www.picernogiordano.com","Toni Giordano","(908) 241-4331 ","toni@picernogiordano.com",0,"12/07/2005 01:09:49 PM",0,"11/22/2010 11:49:43 AM",0,1,0,1,1,"Surfacing",
271,"Cowart Mulch Products, Inc.",,"185 Peachtree Industrial Boulevard",,"Sugar Hill","GA","30518          ","United States","(770) 932-6161","(770) 932-5150",,"http://www.cowartmulch.com","Judy Cooper","(770) 932-6161 ","Judy@cowartmulch.com",0,"12/07/2005 01:44:24 PM",0,"11/22/2010 10:29:24 AM",0,1,0,1,1,"Surfacing",
272,"Playtop LLC",,"PO Box 628",,"Wadsworth","OH","44282-0628     ","United States","330-835-8352","330-334-2538",,"http://www.playtop.com","Vince Garrett","330-835-8352   ","vincent.garrett@playtop.com",0,"12/07/2005 02:01:16 PM",0,"03/01/2012 09:45:41 AM",0,0,0,0,0,"Surfacing",
273,"JK Enterprise Landscape Supply, LLC",,"PO Box 80",,"Clifton","VA","20124-0080","United States","(703) 352-1858","(540) 428-3096",,"http://www.lumberjake.com","Jake Klitenic","(703) 352-1858 ","jake@lumberjake.com",0,"12/08/2005 09:20:37 AM",0,"11/22/2010 11:24:08 AM",0,1,0,0,0,"Surfacing",
274,"LTR Products, LLC",,"3410 Midcourt Road, Suite 108",,"Carrollton","TX","75006","United States","(972) 810-6277","(972) 232-4888",,"http://www.groundsmart.com","John Fuller","(972) 810-6277","jfuller@libertytire.com",0,"12/08/2005 10:53:55 AM",0,"05/17/2012 03:30:32 PM",0,1,0,1,1,"Surfacing",
276,"XGrass Inc.",,"PO Box 846",,"Dalton","GA","30722","United States","877-881-8477","706-529-0849",,"http://www.xgrass.com","Steve White Jr.","706-272-0140   ","steve@xgrass.com",0,"02/17/2006 09:28:04 AM",0,"11/22/2010 11:41:55 AM",0,1,0,1,1,"Surfacing",
277,"Renewable Fiber, Inc.",,"PO Box 205","8394 US Highway 85","Ft. Lupton","CO","80621          ","United States","(800) 888-0374","(303) 857-9409",,"http://www.renewablefiber.com","Dewayne Brown","(303) 857-0763 ","dbrown@renewablefiber.com",0,"02/17/2006 09:31:39 AM",0,"06/21/2011 03:45:59 PM",0,1,0,1,1,"Surfacing",
288,"WonderWorx, LLC",,"c/o Swift Property Fund, Inc.","424 Elk Range Road","Carbondale","CO","81623","United States","(970) 925-4573","(970) 925-4261",,"http://www.wonderworx.net/","Robert J. Tobias","               ","robert@wonderworx.net ",0,"06/14/2006 10:26:00 AM",0,"03/19/2012 08:18:25 AM",0,0,0,0,0,"Equipment",
294,"National Sales & Supply",,"550 State Road","Suite 100","Bensalem","PA","19020          ","United States","(215) 639-6767","(215) 639-6769",,"http://www.nsalessupply.com","Jason Shragher","               ","jshragher@nsalessupply.com",0,"09/11/2006 03:57:24 PM",0,"05/16/2012 10:19:24 AM",0,0,0,0,0,"Surfacing",
297,"Kraiburg Relastec GmbH & Co., KG",,"Fuchsberger Strasse 4",,"Salzwedel","  ","29410          ","Germany","+49 3901 8304 61","+49 3901 423557",,"http://www.kraiburg-relastec.com/euroflex","Sylvia Karras","+49 3901 8304 6","sylvia.karras@kraiburg-relastec.com",0,"11/14/2006 05:35:04 PM",0,"06/19/2012 02:29:09 PM",0,1,0,1,1,"Surfacing",
300,"Ferris Mulch Products, LLC",,"PO Box 46",,"Hawleyville","CT","06440          ","United States","(203) 790-1155","(203) 790-1154",,"http://www.ferrismulchproducts.com","Percy Ferris, Jr.","(203) 790-1155 ","sales@ferrismulchproducts.com",0,"03/01/2007 08:30:19 AM",0,"11/22/2010 10:37:00 AM",0,1,0,1,1,"Surfacing",
305,"International Mulch Company",,"2280 Schuetz Road, Suite 201",,"St. Louis","MO","63146","United States","(866) 936-8524","(314) 336-1031",,"http://www.internationalmulch.com","Tim Miller","(314) 336-1030 ","tim@internationalmulch.com",0,"03/01/2007 08:54:33 AM",0,"11/22/2010 10:53:38 AM",0,1,0,1,1,"Surfacing",
306,"Oldcastle Lawn and Garden, Inc.",,"500 S. Florida Avenue, Suite 240",,"Lakeland","FL","33801          ","United States","(800) 231-9064","(863) 284-2741",,"http://www.myoldcastle.com/Products/Lawn_and_Garden/index.htm","Jay Dunkel","(863) 284-2740 ","dean.sparks@oldcastle.com",0,"03/29/2007 04:36:34 PM",0,"04/10/2012 11:56:29 AM",0,1,0,1,1,"Surfacing",
311,"Cook Forest Products, Inc.",,"252 Milford Street",,"Upton","MA","01568          ","United States","(800) 474-0747","(508) 634-3338",,"http://www.cookfpi.com","Garrett Thomas","(508) 634-3300 ","garrett@cookfpi.com",0,"05/02/2007 03:35:28 PM",0,"06/19/2012 01:30:55 PM",0,1,0,1,1,"Surfacing",
312,"Phillips Bark Processing Co., Inc.",,"PO Box 1395",,"Brookhaven","MS","39602          ","United States","(800) 748-9019","(601) 835-0308",,"http://www.phillipsbark.com","Bill Phillips","(601) 833-7858 ","bill@phillipsbark.com",0,"05/07/2007 02:21:10 PM",0,"11/22/2010 11:32:46 AM",0,1,0,1,1,"Surfacing",
315,"ForeverLawn, Inc.",,"5801 Mayfair Road","#4","North Canton","OH","44720","United States","866-992-7876","866-212-1925",,"http://www.foreverlawn.com","Joe Leedie","(866) 992-7876","joe@foreverlawn.com",0,"06/11/2007 03:21:24 PM",0,"06/06/2011 03:04:54 PM",0,1,0,1,1,"Surfacing",
317,"No Fault Sport Group, LLC",,"3112 Valley Creek Drive",,"Baton Rouge","LA","70808          ","United States","(866) 637-7678","(225) 291-3821",,"http://www.nofault.com","Jennifer Smith","(225) 215-7760 ","jennifer@nofault.com",0,"06/26/2007 10:14:29 AM",0,"04/15/2011 03:02:32 PM",0,1,0,1,1,"Surfacing",
318,"Creative Rubber Works, LLC",,"3 Browns Lane",,"Hawthorne","NY","10532          ","United States","(914) 372-7111","(914) 592-2379",,,"Susan Weinstein","914-372-7111   ","creativerubber@cloudg.net",0,"07/09/2007 08:29:28 AM",0,"05/16/2012 10:13:49 AM",0,0,0,0,0,"Surfacing",
319,"Xccent, Inc.",,"5240 257th Street",,"Wyoming","MN","55092     ","United States","651-462-9200","651-462-9299",,"http://www.xccent.biz","Brian Shoop","651-462-9200","bshoop@xccent.biz",0,"07/10/2007 07:25:42 AM",0,"06/01/2012 11:31:41 AM",0,1,0,1,1,"Equipment",
324,"Forestry Resources, Inc.",,"4353 Michigan Link",,"Fort Myers","FL","33916          ","United States","(239) 334-7343","(239) 334-2952",,"http://www.gomulch.com","John Cauthen","239-334-7343   ","jcauthen@gomulch.com",0,"08/08/2007 02:57:58 PM",0,"11/22/2010 10:42:51 AM",0,1,0,1,1,"Surfacing",
325,"Cobalt Holdings",,"1111 N. Centerville Road",,"Sturgis","MI","49091          ","United States","(877) MULCH2U","(269) 651-3681",,"http://www.cobaltrubber.com","Luis Rosado","(269) 651-3681 ","lrosado@cobaltrubber.com",0,"08/15/2007 02:14:48 PM",0,"06/13/2011 10:45:20 AM",0,1,0,0,0,"Surfacing",
327,"Cre8play",,"5121 Winnetka Avenue N.","Suite 108","New Hope","MN","55428","United States","(612) 670-8195","(612) 486-7740",,"http://www.cre8play.com","Todd Lehman","(612) 670-8195 ","todd@cre8play.com",0,"09/19/2007 02:16:18 PM",0,"11/22/2010 10:29:33 AM",0,1,0,0,0,"Surfacing",
330,"PlaySafe, LLC",,"P.O. Box 66056",,"Albuquerque","NM","87193          ","United States","1-87PLAYSAFE","(505) 899-2666",,"http://www.play-safe.com","Butch DeFillippo","(505) 899-9532 ","butch@play-safe.com",0,"10/02/2007 09:24:15 AM",0,"11/22/2010 11:38:03 AM",0,1,1,0,0,"Either",
331,"Bradco Environmental",,"P.O. Box 1871",,"Crestline","CA","92325          ","United States","(888) BRADCO-1","(877) BRADCO-0",,"http://www.bradcoenvironmental.com","Brad Bauder","(909) 900-9224 ","brad@bradcoenvironmental.com",0,"10/22/2007 12:29:58 PM",0,"11/22/2010 10:26:47 AM",0,0,0,0,0,"Either",
334,"Safety Play, Inc.",,"10460 Roosevelt Boulevard","#295","St. Petersburg","FL","33716          ","United States","(727) 522-0061","(727) 522-0061",,"http://www.mindspring.com/~safetyplay","Scott Burton","               ","safetyplay@mindspring.com",0,"10/22/2007 12:51:20 PM",0,"11/22/2010 11:46:19 AM",0,0,0,0,0,"Equipment",
342,"Spread Tech",,"35 Hickory Springs Industrial Drive",,"Canton","GA","30115          ","United States","(866) 685-2438","(866) 651-3272",,"http://www.spreadtech.biz","Andy Erler","(678) 878-8649 ","andy.erler@spreadtech.biz",0,"11/29/2007 10:00:00 AM",0,"11/22/2010 11:49:12 AM",0,0,0,0,0,"Equipment",
343,"Brink Wood Products, Inc.",,"1175 76th Street Southwest",,"Byron Center","MI","49315          ","United States","(616) 878-9190","(616) 878-0012",,"http://www.brinkwoodproducts.net","Shelly Doornbos","(616) 878-9190 ","sales@brinkwoodproducts.net",0,"11/29/2007 10:13:27 AM",0,"11/22/2010 10:26:53 AM",0,1,0,1,1,"Surfacing",
345,"Gared Sports",,"707 North Second Street","Suite 220","St. Louis","MO","63102          ","United States","(800) 325-2682","(314) 421-6014",,"http://www.garedsports.com","Coy Porter","(314) 421-0044 ","coy@garedsports.com",0,"12/13/2007 02:22:54 PM",0,"11/22/2010 10:47:40 AM",0,0,0,0,0,"Equipment",
347,"LP Industries Inc.",,"110 Charleston Drive","Suite 106","Mooresville","NC","28117          ","United States","(800) 447-3349","(704) 664-1409",,"http://www.childforms.com","Dale Readling","(704) 664-5814 ","dale@childforms.com",0,"01/17/2008 12:46:35 PM",0,"11/22/2010 11:27:28 AM",0,1,0,0,0,"Equipment",
350,"Safeplay by Design, Inc.",,"9666 Sheldon Road",,"Elk Grove","CA","95624          ","United States","(916) 647-0912",,,"http://www.spease.com","David Spease","(916) 647-0912 ","david@spease.com",0,"02/07/2008 10:35:43 AM",0,"12/05/2011 03:08:29 PM",0,1,1,0,0,"Either",
351,"FlexGround, LLC",,"1809 W. 4th Street",,"Tempe","AZ","85281","United States","(602) 954-0000","(623) 223-1143",,"http://www.flexground.com","Bill Stafford","(602) 954-0000 ","bill@flexground.com",0,"02/21/2008 03:12:13 PM",0,"03/13/2012 11:24:46 AM",0,1,0,1,1,"Surfacing",
359,"Almstead Nursery & Mulch",,"58 Beechwood Avenue",,"New Rochelle","NY","10801          ","United States","1-800-427-1900","914-576-5448",,"http://www.almstead.com","Sean Allison","914-576-0193   ","sallison@almstead.com",0,"05/28/2008 02:35:25 PM",0,"06/06/2011 03:03:01 PM",0,0,0,0,0,"Surfacing",
360,"Everguard Surfacing",,"25 Berry Hill Road",,"Oyster Bay","NY","11771","United States","516-864-0550","516-864-0552",,"http://www.everguard.com","Steve Harcount","516-864-0550","steve@esurfacing.com",0,"05/28/2008 02:37:14 PM",0,"05/30/2012 08:52:52 AM",0,0,0,0,0,"Surfacing",
364,"Pacific Outdoor Products, Inc.",,"PO Box 50",,"Maple Valley ","WA","98038          ","United States","(425) 432-6000","(425) 432-2600",,,"Sam Emmons","(425) 432-6000 ","pacific@zipcon.com",0,"06/04/2008 08:47:07 AM",0,"11/22/2010 11:30:20 AM",0,0,0,0,0,"Equipment",
365,"Grounds for Play, Inc.",,"210 Industrial Court",,"Carrollton","GA","30017   ","United States","678-390-1924","770-832-6687",,"http://www.groundsforplay.com","Sherri Pope","678-390-1924","spope@groundsforplay.com",0,"06/10/2008 11:21:44 AM",0,"06/01/2012 11:26:35 AM",0,1,0,1,1,"Equipment",
367,"TUV America",,"1755 Atlantic Blvd.",,"Auburn Hills","MI","48326","United States","(734) 455-4841","(734) 455-6590",,"http://www.tuvam.com","David Splane","(734) 455-4841 ","dsplane@tuvam.com",0,"06/27/2008 10:09:39 AM",0,"11/22/2010 11:51:32 AM",0,0,0,0,0,"Either",
368,"Ben Shaffer Recreation, Inc.",,"PO Box 844",,"Lake Hopatcong","NJ","07849          ","United States","(800) 953-2021","(973) 663-4615",,"http://www.benshaffer.com","Scott Tumminello","(800) 953-2021 ","scott@benshaffer.com",0,"07/10/2008 10:50:20 PM",0,"11/22/2010 10:25:45 AM",0,1,1,0,0,"Either",
369,"ElephantPlay",,"11800 Avenue Adolphe Caron",,"Montreal","Qu","H1E 7J3","Canada","(877) 854-3319","(514) 852-1816",,"http://www.elephantplay.com","Serge Morin","(514) 852-3319 ","smorin@elephantplay.com",0,"07/11/2008 12:13:45 AM",0,"11/22/2010 10:34:13 AM",0,1,0,1,1,"Equipment",
371,"Easy Gardener Products, Inc.",,"PO Box 21025",,"Waco","TX","76702          ","United States","800-327-9462","254-753-5372",,"http://www.easygardener.com","Kathy Winters","254-753-5353   ","kathyw@easygardener.net",0,"07/23/2008 09:31:12 AM",0,"01/05/2012 02:19:11 PM",0,0,0,0,0,"Surfacing",
374,"American Recycling Center, Inc.",,"655 Wabasee Drive",,"Owosso","MI","48867          ","United States","(800) 234-5414","(989) 725-5122",,"http://www.americanrecycling.com","Larry Fisher","(989) 725-5100 ","lfisher@americanrecycling.com",0,"08/05/2008 06:42:42 PM",0,"11/22/2010 10:23:44 AM",0,0,0,0,0,"Either",
375,"Big Bird Tree Service, Inc.",,"401 East Wheatland",,"Dallas","TX","75241          ","United States","(972) 228-8844","(972) 228-8855",,"http://www.bigbirdtreeservice.com/","Irene Eads","(972) 228-8844","bigbirdtreeservice@yahoo.com",0,"08/05/2008 06:46:11 PM",0,"06/06/2011 03:03:27 PM",0,0,0,0,0,"Surfacing",
376,"The Mulch Company",,"665 Vernon Avenue",,"Nashville","TN","37209          ","United States","615-356-2600","615-356-2601",,"http://www.mulchcompany.com","Tony Emmanuel","615-356-2600   ","tony@mulchcompany.com",0,"08/14/2008 12:48:23 PM",0,"11/22/2010 11:51:14 AM",0,1,0,1,1,"Surfacing",
377,"Playtime Playground Equipment",,"786 Culver Road",,"Falkville","AL","35622          ","United States","(866) 784-7529","(256) 784-5573",,"http://www.playtimeus.com/","Ken Winkles","(256) 784-9400 ",,0,"09/11/2008 02:32:16 PM",0,"11/22/2010 11:38:37 AM",0,1,0,0,0,"Equipment",
379,"Vortex Aquatic Structures International, Inc.",,"328 Avro",,"Pointe-Claire, QC","  ","H9R 6W5        ","Canada","(877) 586-7839","(514) 335-5413",,"http://www.vortex-intl.com","Keith MacGregor","(514) 694-3868 ","kmacgregor@vortex-intl.com",0,"09/11/2008 05:02:06 PM",0,"11/22/2010 11:55:43 AM",0,1,0,0,0,"Equipment",
380,"Bears Playgrounds",,"7577 East Main Road",,"Lima","NY","14485          ","United States","(877) 807-7529","(585) 624-7590",,"http://www.bearsplaygrounds.com","Danny Bears","(585) 624-7590 ","dannybears@bearsplaygrounds.com",0,"09/11/2008 06:30:47 PM",0,"11/22/2010 10:25:28 AM",0,1,0,0,0,"Either",
382,"Rainbow Play Systems",,"1500 Rainbow Parkway",,"Brookings","SD","57006          ","United States","(800) 724-6269","(605) 696-5842",,"http://www.rainbowplay.com","Brian Murphy","(605) 692-1500 ","brianm@rainbowplay.com",0,"09/15/2008 11:34:06 AM",0,"12/08/2010 10:33:27 AM",0,1,0,0,0,"Either",
383,"SafeSurf, Inc.",,"PO Box 7316",,"Round Rock","TX","78683          ","United States","972 467-1031","972-292-7076",,"http://www.safesurfinc.com","Lauren Gordon","972-467-1031   ","laureng@safesurfinc.com",0,"09/23/2008 04:32:55 PM",0,"11/22/2010 11:46:05 AM",0,1,0,1,1,"Surfacing",
384,"Sport Rock Intl., Inc.",,"PO Box 32 ",,"Pismo Beach","CA","93448          ","United States","(805) 481-5686","(805) 489-6451",,"http://www.sportrockintl.com","Doug Lapp","(805) 434-2305 ","doug@sportrockintl.com",0,"10/06/2008 09:49:54 AM",0,"03/07/2012 09:39:02 AM",0,0,0,0,0,"Either",
386,"Swing Kingdom LLC",,"36 Glen Brook Road",,"Leola","PA","17540          ","United States","(717) 656-4449","(717) 656-8464",,"http://www.swingkingdom.com","Phi V. Le","(717) 656-4449 ","Phi@swingkingdom.com",0,"11/14/2008 04:04:52 PM",0,"11/28/2011 08:11:25 AM",0,1,0,0,0,"Equipment",
387,"NPCG, LLC",,"205 South Garfield Street",,"Carlisle","IA","50047          ","United States","(515) 989-0829","(866) 844-1366",,"http://www.welchproducts.com","Dave Albers","(515) 989-0829 ","dave@playgroundcompliance.com",0,"11/21/2008 03:23:24 PM",0,"04/11/2012 03:19:24 PM",0,1,0,1,1,"Surfacing",
388,"Kan-Go-Roo Playground Ltd.",,"23 Boom Lane","Unit E","Atholville","  ","E3N4E8         ","Canada","(888) 212-1411","(888) 789-0987",,"http://www.kangoroo.com","Adrien Pradeau","(506) 789-0849","adrien@kangoroo.com",0,"03/17/2009 07:36:45 AM",0,"06/07/2012 01:17:35 PM",0,1,0,1,1,"Equipment",
390,"Wolf Mountain Products",,"387 S. 520 W.","Suite 215","Linden","UT","84042          ","United States","(801) 722-7061","(801) 722-7057",,"http://www.wolfmountainproducts.com","Lloyd","Sedillo","lloyd@wlfmtn.com",0,"04/10/2009 09:40:17 AM",0,"08/02/2011 10:56:35 AM",0,0,0,0,0,"Surfacing",
391,"Irvine Wood Recovery, Inc.",,"PO Box 110, 110 Glendale Milford Road",,"Miamiville","OH","45147          ","United States","(513) 831-0060","(513) 831-3637",,"http://www.playgroundturf.com","Les Irvine","(513) 831-0060 ","lirvine@irvinewoodrecovery.com",0,"04/14/2009 08:12:24 AM",0,"02/01/2011 05:02:14 PM",0,1,0,1,1,"Surfacing",
399,"Rooster Rubber LLC",,"1720 Wabash Avenue",,"Kansas City","MO","64127-2505     ","United States","(816) 241-6400","(816) 241-6404",,"http://www.roosterrubber.com","Bert Darling","(816) 241-6400 ","bdarling@roosterubber.com",0,"04/14/2009 09:43:04 AM",0,"04/18/2012 02:47:47 PM",0,0,0,0,0,"Surfacing",
400,"SYNLawn, STR Corp.",,"2680 Abutment Road",,"Dalton","GA","30721          ","United States",,"706-876-5566",,"http://www.synlawn.com","Brandon Greene","(866) 796-5296 ","bgreene@synlawn.com",0,"04/14/2009 09:46:28 AM",0,"04/16/2012 09:18:56 AM",0,1,0,1,1,"Surfacing",
401,"Universal Play Systems, Inc.",,"60 Ramona Ct.",,"New Rochelle","NY","10804","United States","(800) 342-0334","(914) 834-7696",,"http://www.universalplay.com","Vanessa Martelli","(800) 342-0334 ","vmmartelli@universalplay.com",0,"04/14/2009 09:52:04 AM",0,"11/22/2010 11:52:30 AM",0,0,0,0,0,"Equipment",
402,"Mt. Airy Lumber Co., LLC",,"209 Mt. Airy Road",,"New Providence","PA","17560          ","United States","(717) 786-7238","(717) 786-8451",,"http://www.mtairylumber.com","Greg Schneider","(717) 786-7238 ","mtairylumber@comcast.net",0,"04/14/2009 09:56:42 AM",0,"11/22/2010 11:28:46 AM",0,1,0,1,1,"Surfacing",
403,"Active Playground Equipment",,"124 Kendall Street",,"Point Edward, ON","  ","N7V 4G5        ","Canada","519-337-0999","519-337-3444",,"http://www.apeplayground.com","Ben Prins","519-337-0999   ","ben@apeplayground.com",0,"04/28/2009 01:08:49 PM",0,"11/22/2010 10:22:58 AM",0,1,0,0,0,"Either",
404,"Grower's Choice Landscape Products",,"270 Shoemaker Street",,"Kitchener, ON","  ","N2E 3E1        ","Canada","(519)-748-6551","(519)-696-3779",,"http://www.growerschoice.ca","Jody Leis","(519)-748-6551","jleis@growerschoice.ca",0,"04/29/2009 12:16:36 PM",0,"06/21/2011 03:46:40 PM",0,1,0,1,1,"Surfacing",
405,"PalletOne of NC",,"010 26th Street",,"Butner","NC","27509          ","United States","(919) 575-6491","(919) 575-8467",,"http://www.palletone.com","Mike Allgood","336-402-2318","mallgood@palletone.com",0,"04/30/2009 01:13:58 PM",0,"08/02/2011 10:02:06 AM",0,1,0,1,1,"Surfacing",
410,"Riverside Mulch, Inc.",,"PO Box 1870",,"Romney","WV","26757          ","United States","304-822-3380","304-822-3377",,,"Adam Stump","304-822-3380   ","riversidemulch@frontiernet.net",0,"06/02/2009 11:38:15 AM",0,"05/16/2012 10:21:45 AM",0,0,0,0,0,"Surfacing",
412,"UltraPlay Systems",,"150 Playcore Drive SE",,"Fort Payne","AL","35967          ","United States","256-997-5241","256-997-5421",,"http://www.playcore.com","Wes Sutton","256-997-5241   ","wsutton@playcore.com",0,"06/02/2009 11:52:20 AM",0,"11/22/2010 11:51:41 AM",0,1,0,1,1,"Equipment",
416,"PLAYCLUB S.A. de C.V.",,"Circuito San Roque #423 Colonia Puerto Interior",,"Silao","Gu","36275    ","Mexico","+52 472 723 83 50","+52 477 771 58 20",,"http://www.playclub.com.mx","Norma Guadalupe Solis","52-477 7 11 90 ","norma@playclub.com.mx",0,"08/25/2009 04:44:00 PM",0,"02/10/2012 09:54:08 AM",0,1,0,0,0,"Equipment",
417,"Gro-Well Brands, Inc. dba Western Organics, Inc.",,"420 E. Southern Ave.",,"Tempe","AZ","85282","United States","602-792-0275 ext 3113","602-792-0280",,"http://www.gro-well.com","Lloyd Porter","602-792-0275","lporter@gro-well.com",0,"09/14/2009 12:23:48 PM",0,"11/22/2010 10:51:38 AM",0,0,0,1,0,"Surfacing",
420,"WKP Enterprises Inc. dba Austin Landscape Supplies",,"5317 S IH 35",,"Georgetown","TX","78626          ","United States","(512) 930-2311","(512) 868-0845",,"http://www.austinlandscapesupplies.com","Patrick Whittlesey","(512) 930-2311 ","wkpentals@aol.com",0,"09/16/2009 04:36:03 PM",0,"11/22/2010 11:57:07 AM",0,1,0,1,1,"Surfacing",
421,"Qitele Group Co., Ltd.",,"Xiaojing'ao industrial zone, Qiaoxia Town",,"Wenzhou City, Zhejiang Province",,"325106         ","China","(86) 577-67411111","(86) 577-6742288",,"http://www.qitele.com","Michael Liu","(86) 577-674111","michael@qiteleusa.com",0,"10/09/2009 08:40:09 AM",0,"05/24/2012 07:44:29 AM",0,1,0,1,1,"Equipment",
422,"Custom Playgrounds & Child Care Design Consultants",,"PO Box 1283",,"Brooklandville","MD","21022          ","United States","410-358-8343","410-358-8760",,,"Esther F. Grossman","410-358-8343   ","cuspdc@comcast.net",0,"10/19/2009 05:17:02 PM",0,"11/22/2010 10:30:09 AM",0,0,0,0,0,"Either",
423,"Kid Structures, LLC dba Tree Frogs-Wooden Swing Se",,"4465 W. Sam Houston Parkway North",,"Houston","TX","77041          ","United States","800-787-0655","713-690-5572",,"http://www.treefrogsswingsets.com","Tom Corcoran","713-690-5552   ","tom@treefrogsswingsets.com",0,"10/19/2009 05:18:24 PM",0,"11/22/2010 11:24:53 AM",0,1,0,0,0,"Equipment",
424,"Saguaro Corp dba El Paso C&D Recycling",,"PO Box 691538",,"El Paso","TX","79996          ","United States","(915) 859-2890","915-859-3308",,"http://www.greenpaso.com","Gilbert Garcia","(915) 726-8858","gilbert@greenpaso.com",0,"10/20/2009 02:44:55 PM",0,"08/02/2011 09:47:12 AM",0,1,0,1,1,"Surfacing",
425,"Adventure Playground Systems, Inc.",,"10845 Church Lane",,"Houston","TX","77043          ","United States","(888) 935-2112","(713) 935-9633",,"http://www.apsplay.com","James Contreras","(713) 935-9684 ","james@apsplay.com",0,"10/20/2009 04:01:12 PM",0,"11/22/2010 10:23:16 AM",0,1,0,1,1,"Equipment",
430,"Ready Field Solutions, LLC",,"1240 Ethan Avenue",,"Streetsboro","OH","44241          ","United States","330-562-0550","330-562-0563",,"http://www.ready-to-haul.com","Joe Breiding","330-562-0563","joe@ready-to-haul.com",0,"12/23/2009 08:54:32 AM",0,"05/24/2012 11:17:10 AM",0,0,0,0,0,"Surfacing",
431,"A&W Safety Surfacing, LLC dba Playsafe Surfacing",,"1705 Cowart Road",,"Plant City","FL","33567          ","United States","(813) 650-0104","(813) 650-0107",,"http://www.playsafesurfacingllc.com/","Eva Ruiz","(813) 650-0104 ","playsafesurfacing@tampabay.rr.com",0,"01/12/2010 01:21:57 PM",0,"11/22/2010 10:22:37 AM",0,0,0,0,0,"Surfacing",
434,"Hanover Specialties, Inc.",,"35 Feldland Street",,"Bohemia","NY","11716          ","United States","631-231-1300","631-231-1329",,"http://www.vitriturf.com","Steve Noskin","631-231-1300   ","vturf@aol.com",0,"01/29/2010 09:21:04 AM",0,"12/28/2011 12:18:26 PM",0,1,0,1,1,"Surfacing",
435,"Sylva Corporation, Inc.","mp55371","PO Box 219, 900 Airport Road",,"Princeton","MN","55371          ","United States","763-389-2748","763-389-9378",,"http://www.SylvaCorp.com","Larry Doose","763-389-2748   ","ladoose@sylvacorp.com",0,"01/29/2010 09:24:54 AM",0,"11/22/2010 11:50:24 AM",0,1,0,1,1,"Surfacing",
436,"Rockwerx Inc.",,"9600 Pulaski Park Drive","Suite 117","Baltimore ","MD","21220          ","United States","877-595-4155","410-238-1914",,"http://www.rockwerxclimbing.com","Scott Hornick","410-238-1913   ","scott@srws.com",0,"03/10/2010 04:08:09 PM",0,"05/23/2012 10:54:59 AM",0,0,0,0,0,"Equipment",
437,"Crescent Landscape Supply Inc.",,"13874 State Hwy 27",,"Cadott","WI","54727          ","United States","715-289-4470","715-289-4681",,"http://www.crescentlandscapesupply.com/","Allan Olynick","715-289-4470   ","aolynick@yahoo.com",0,"03/10/2010 04:14:21 PM",0,"05/30/2012 08:53:36 AM",0,1,0,1,1,"Surfacing",
438,"Playsmart International Ltd",,"Unit 4, Birchy Cross Business Centre, Broad Lane","Tanworth in Arden","Solihull, West Midlands","  ","B94 5DN        ","United Kingdom","011 44 1564 742811","011 44 1564 742822",,"http://www.playsmartuk.co.uk","Anthony Johnston","011 44 1564 742","anthony@playsmartuk.co.uk",0,"04/01/2010 12:31:52 PM",0,"09/14/2011 07:09:17 PM",0,0,0,0,0,"Surfacing",
439,"Riverside Ranch, LLC",,"2630 12th Avenue NW",,"Norman","OK","73069          ","United States","(405) 360-7300","(405) 360-7303",,"http://www.riversideranchllc.com","Robin Parker","(405) 360-7300 ","info@riversideranchllc.com",0,"04/01/2010 03:17:15 PM",0,"04/20/2011 09:46:18 AM",0,1,0,1,1,"Surfacing",
441,"Assiniboia Rubber Recycling",,"Box 2019","631 Campbell Street","Assiniboia, SK","  ","S0H 0B0        ","Canada","(306) 642-5599","(306) 642-3360",,"http://www.recyclerubber.ca/","Marc Topola","(306) 642-5599 ","marc.topola@sasktel.net",0,"04/12/2010 03:38:54 PM",0,"11/22/2010 10:24:53 AM",0,0,0,0,0,"Either",
442,"Hull Forest Products, Inc.",,"101 Hampton Road",,"Pomfret Center","CT","06259          ","United States","(860) 974-0127","(860) 974-2963",,"http://www.hullforest.com","Jon St. Jean","(860) 974-0127 ","stjean@hullforest.com",0,"04/12/2010 03:50:36 PM",0,"11/22/2010 10:53:09 AM",0,1,0,1,1,"Surfacing",
443,"Universal Precast Concrete",,"PO Box 994170",,"Redding","CA","96099-4170     ","United States","(530) 605-2664","(530) 243-6466",,"http://www.universalprecast.com","Dan Christensen","(530) 605-2664 ","dan@upcparks.com",0,"04/15/2010 02:22:11 PM",0,"11/22/2010 11:52:40 AM",0,1,0,1,1,"Equipment",
444,"DuraPlay Inc.",,"150 Brownson Lane",,"Driftwood","TX","78619","United States","512-847-2473","512-847-9577",,"http://www.DuraPlay.net","Darren Toomey","512-847-2473   ","darren@duraplay.net",0,"04/23/2010 03:42:30 PM",0,"11/22/2010 10:33:07 AM",0,1,0,1,1,"Surfacing",
445,"TFG Installations, Inc.",,"80 Business Park Drive","Suite 300","Armonk","NY","10504-1705     ","United States","800-345-1953","914-273-8659",,"http://www.greensoftsurfaces.com","Henry Mustacato","800-345-1953   ","info@greensoftsurfaces.com",0,"05/11/2010 03:03:07 PM",0,"05/02/2012 07:44:36 AM",0,1,0,1,1,"Surfacing",
446,"Hermanns Contracting Ltd.",,"1510 Hwy #27","PO Box 369","Schomberg","ON","L0G 1T0        ","Canada","905-939-1230","905-939-1235",,"http://www.hermanns.ca","Jorg Hermanns","905-939-1230   ","jorg@hermanns.ca",0,"05/11/2010 03:04:39 PM",0,"11/22/2010 10:52:50 AM",0,0,0,0,0,"Surfacing",
447,"Greenscapes Home & Garden Products",,"200 Union Grove Road",,"Calhoun","GA","30701          ","United States","866-629-6652","706-602-9042",,"http://www.greenscapesinc.net","Don Hayes","706-629-6652   ","dongreenscapes@comcast.net",0,"05/11/2010 03:05:44 PM",0,"07/18/2012 09:38:26 AM",0,0,0,0,0,"Surfacing",
448,"Viramontes Express Inc.",,"17130 Hellman Avenue",,"Corona","CA","92880          ","United States","(909) 597-7232","(909) 597-6473",,,"Cyndi Viramontes","(909) 597-7232 ","vcyndilyn@aol.com",0,"05/25/2010 04:34:00 PM",0,"06/28/2011 03:20:28 PM",0,0,0,1,0,"Surfacing",
449,"KSL Design",,"18 Spalding Drive",,"Brentford, Ontario","  ","N3T 0B2        ","Canada","877-757-7529","519-758-6565",,"http://www.ksldesign.ca","Bryan Belair","877-757-7529   ","bryan@ksldesign.ca",0,"05/27/2010 10:37:14 AM",0,"08/08/2011 10:07:13 AM",0,0,0,0,0,"Equipment",
450,"Nursery Supply Co. LLC",,"PO Box 129",,"Fisherville","KY","40023-0129     ","United States","866-241-1566","502-489-5059",,,"Bob Pille","866-241-1566   ","BobPilleTCB@gmail.com",0,"06/09/2010 10:09:46 AM",0,"08/02/2011 10:00:23 AM",0,0,0,0,0,"Surfacing",
451,"Putts Products & Services",,"3466 Garfield Road",,"Auburn","MI","48611          ","United States","989-205-1660","989-662-4566",,,"Doug Putt","989-205-1660   ","doug@pps1.biz",0,"06/11/2010 01:50:58 PM",0,"08/02/2011 10:24:48 AM",0,0,0,0,0,"Surfacing",
453,"Michigan Wood Fibers LLC",,"9426 Henry Court",,"Zeeland","MI","49464          ","United States","(616) 875-2241","(616) 875-2245",,"http://www.michiganwoodfibers.com","Nathan Weaver","(616) 875-2241 ","nate@michiganwoodfibers.com",0,"07/15/2010 04:33:55 PM",0,"08/10/2011 01:12:24 PM",0,1,0,1,1,"Surfacing",
454,"Woodland Mulch, LLC",,"2569 Kidron Road",,"Orrville","OH","44667          ","United States","(330) 857-1503","(330) 857-1555",,"http://www.woodlandmulchoh.com/","Paul Hochstetler","(330) 857-1503 ","paul@woodlandmulchllc.com",0,"07/19/2010 03:20:06 PM",0,"11/22/2010 11:42:18 AM",0,1,0,1,1,"Surfacing",
455,"Games & Sports LTD",,"PO Box 633",,"Ashkelon","  ","78106          ","Israel","917-512-5363","212-842-1122",,"http://www.usa-playgrounds.com","Roy Arad","917-512-5363   ","roy@usa-playgrounds.com",0,"07/21/2010 01:53:19 PM",0,"11/22/2010 10:47:01 AM",0,0,0,0,0,"Either",
458,"Everlast Climbing Industries",,"150 Playcore Drive SE",,"Fort Payne","AL","35967          ","United States","(800) 633-2394","(256) 997-5421",,"http://www.playcore.com","Wes Sutton","(256) 997-5241 ","wsutton@playcore.com",0,"08/24/2010 12:07:48 PM",0,"11/22/2010 10:35:23 AM",0,1,0,1,1,"Equipment",
461,"ABC-Team Spielplatzgeraete GmbH",,"PO Box 255",,"Ransbach-Baumbach","  ","56222          ","Germany","+49 2623 8007 0","+49 2623 4851",,"http://www.abc-team.de/index.cfm/go/home.welcome/lang/en","Ayca Mehlig","+49 2623 8007 0","amehlig@abc-team.de",0,"09/10/2010 12:17:02 PM",0,"09/01/2011 03:06:24 PM",0,1,0,1,1,"Equipment",
462,"Maibec, Inc.",,"202 - 1984, 5e Rue ",,"Lévis","QC","G6W 5M6        ","Canada","(800) 363-1930","(418) 653-4354",,"http://www.maibec.com","Nadine Arnautovitch","(418) 659-3323 ","nadine.arnautovitch@maibec.com",0,"09/22/2010 01:17:30 PM",0,"03/17/2011 08:23:27 AM",0,1,0,1,1,"Surfacing",
464,"King's Tire Recycling, Inc.",,"PO Box 4442","19461 Alberta Street","Oneida","TN","37841          ","United States","(423) 286-2282","(423) 286-2284",,"http://www.rubbermulchking.com","Gina Phillips","(423) 286-2282 ","ginaphillips@highland.net",0,"10/08/2010 11:21:30 AM",0,"05/22/2012 09:29:57 AM",0,0,0,0,0,"Surfacing",
465,"We Pad It",,"2333 NW 3rd Street"," ","Oklahoma City","OK","73107","United States","(405) 949-1660","(405) 949-0677",,"http://www.wepadit.com","Tracey VanVeckhoven","(405) 949-1660 ","tracey@wepadit.com",0,"10/13/2010 09:50:04 AM",0,"11/22/2010 11:56:06 AM",0,0,1,0,0,"Equipment",
467,"Playsites Plus Surfaces, Inc.",,"103 Brightside Avenue",,"Central Islip","NY","11722","United States","(631) 392-0960","(631) 392-0959",,"http://www.playsitesplus.com","Mark DeKenipp","(631) 392-0960 ","mdekenipp@playsitesplus.com",0,"10/19/2010 12:59:53 PM",0,"11/22/2010 11:38:14 AM",0,1,0,1,1,"Surfacing",
468,"Richter Spielgeraete GmbH",,"Simsseestr. 29",,"Frasdorf","  ","83112          ","Germany","+49 8052 1798-0","+49 8052 4180",,"http://www.unitedplay.com","Peter Heuken","+49 8052 1798-0","management@richter-spielgeraete.de",0,"10/27/2010 10:27:43 AM",0,"11/22/2010 11:44:16 AM",0,1,0,1,1,"Equipment",
469,"Synthetic Lawn Solutions",,"269 Miles Road",,"Chagrin Falls","OH","44022          ","United States","(216) 905-3387",,,,"George Graham","(216) 905-3387 ","ggraham25@gmail.com",0,"12/02/2010 01:38:13 PM",,,0,1,0,0,0,"Either",
470,"EcoGreen Environmental, LLC",,"24481 Alta Vista Drive, #2",,"Dana Point","CA","92629          ","United States","(888) 326-4761","(949) 496-1730",,"http://www.SoCALrubberMulch.com","Michael Baldwin","(949) 496-4104 ","mike@socalrubbermulch.com",0,"12/06/2010 02:31:01 PM",0,"12/06/2010 02:34:00 PM",0,0,1,0,0,"Either",
471,"Adventurous Child Inc.",,"4871 Duckcreek Road",,"Cincinnati","OH","45227          ","United States","800-541-1954","513-531-7749",,"http://www.advchild.com","Clark Kugler","513-351-2443   ","ckugler@advchild.com",0,"12/28/2010 02:26:09 PM",,,0,0,0,0,0,"Either",
472,"River Valley Mulch",,"7769 Morehead Road",,"Flemingsburg","KY","41041          ","United States","606-845-4110","606-849-2009",,,"Brian Zook","(606) 845-4110","rivervalleymulch@pcfreemail.com",0,"01/05/2011 09:45:11 AM",0,"03/30/2011 08:56:08 AM",0,1,0,1,1,"Surfacing",
473,"Prodek Inc.",,"2629 Foothill Blvd #375",,"La Crescenta","CA","91214","United States","818-502-2111","818-502-3331",,"http://www.prodek.net","Sloan Bunting","818-502-2111   ","sloan@prodek.net",0,"01/11/2011 10:08:23 AM",0,"06/04/2012 08:42:36 AM",0,0,0,0,0,"Surfacing",
474,"Quality Timber Products, Inc.",,"14485 SW 173rd",,"Rose Hill","KS","67133          ","United States","316-776-0239","316-794-8904",,"http://www.qualitytimberproducts.com","Paul Stearns","316-776-0239   ","paul@qualitytimberproducts.com",0,"01/19/2011 02:42:37 PM",0,"05/22/2012 09:26:11 AM",0,0,0,0,0,"Surfacing",
475,"Hansen's Tree Service",,"104 Hansen Court",,"O'Fallon","MO","63366          ","United States","636-379-1830","636-379-1866",,"http://www.hansenstree.com","Candice Casagrand","636-379-1830   ","candice@hansenstree.com",0,"01/19/2011 02:46:43 PM",0,"05/16/2012 10:15:17 AM",0,0,0,0,0,"Surfacing",
477,"Can-Asia Products Co., Ltd.",,"88 Moo 3, Srimahapoh","Nakornchaisri","Nakornpatom","  ","73120          ","Thailand","66 34 389016","66 34 389243",,"http://www.capco.co.th","Thongchai Srivareerat","66 34 389016   ","canasiaproducts@yahoo.com",0,"02/07/2011 09:03:26 AM",,,0,0,0,0,0,"Either",
478,"Picture Perfect Playgrounds ",,"PO Box 807",,"Ashton","ID","83420          ","United States","(208) 652-3284","(208) 652-3285",,"http://www.pictureperfectplaygrounds.com/","Curtis Stoddard","(208) 652-3683","Curtis@pictureperfectplaygrounds.com",0,"02/15/2011 08:04:30 AM",0,"02/15/2011 09:37:14 AM",0,1,1,0,0,"Either",
479,"Florida Mulch, Inc.",,"P.O. Box 110189","4754 N. Kenansville Road","St. Cloud","FL","34773          ","United States","407-891-8400","407-891-1072",,"http://www.floridamulchonline.com","Susan Shaw","407-891-8400   ","shaw2901@bellsouth.net",0,"02/28/2011 12:16:08 PM",0,"04/20/2011 09:41:37 AM",0,0,0,0,0,"Surfacing",
480,"EasyTurf, Inc. (dba FieldTurf)",,"2750 La Mirada Drive",,"Vista","CA","92081          ","United States","760-745-7000","760-888-2011",,"http://www.easyturf.com","Steve Haber","866-327-9887   ","shaber@easyturf.com ",0,"02/28/2011 12:23:56 PM",0,"05/24/2011 02:06:21 PM",0,1,0,1,0,"Surfacing",
481,"D & D Wood Sales, Inc.",,"P.O. Box 100",,"Nicktown","PA","15762          ","United States","814-948-8672","814-948-8724",,,"Bernie Dumm","814-948-8672   ","jamiedumm@verizon.net",0,"03/11/2011 11:54:49 AM",,,0,0,0,0,0,"Surfacing",
482,"West Coast Rubber Recycling, Inc.",,"1501 Lana Way",,"Hollister","CA","95023          ","United States","831-634-2800","831-634-2801",,"http://www.groundrubbersolutions.com","Cameron Wright","831-634-2800   ","cameron@groundrubber.com",0,"03/15/2011 01:22:19 PM",0,"05/19/2011 07:39:35 AM",0,0,0,0,0,"Surfacing",
483,"Fafard et Frères Ltée",,"771 Rue Principale",,"St. Bonaventure ","QC","J0C 1C0        ","Canada","(819) 396-2293","(819) 396-2136",,"http://www.fafard.ca/en/","Patrice Boislard     ","(819) 396-2293 ","patrice.boiscard@fafard.ca",0,"03/16/2011 04:21:29 PM",0,"06/06/2011 02:22:31 PM",0,0,0,0,0,"Surfacing",
484,"Rels LLC",,"16300 Layhill Road",,"Silver Spring","MD","20906          ","United States","301-924-5656","301-924-5039",,"http://www.relslandscaping.com","Matthew Lowe","301-924-5656   ","lowejamwv1@comcast.net",0,"03/17/2011 10:39:26 AM",0,"08/30/2011 09:57:26 AM",0,1,0,1,1,"Surfacing",
485,"Marks Lumber",,"30 Lump Gulch",,"Clancy","MT","59634          ","United States","406-933-5794","406-933-9143",,"http://www.markslumber.us","Eric Obrigewitch","406-933-5794   ","eric@markslumber.us",0,"03/17/2011 03:58:47 PM",0,"05/10/2011 08:57:07 AM",0,1,0,1,1,"Surfacing",
486,"B & B Lumber Co. Inc.",,"Drawer T","Solvay Road","Jamesville","NY","13078          ","United States","315-492-1786","315-469-4946",,"http://www.bblumber.com","Patrick Buff","315-492-1786   ","pat.buff@bblumber.com",0,"03/31/2011 09:06:48 AM",0,"01/27/2012 11:34:40 AM",0,0,0,0,0,"Either",
487,"Graber Lumber L.P.",,"17528 Cuba Road",,"Spencerville","IN","46788          ","United States","(260) 238-4124","(260) 238-4056",,,"Jason Graber","(260) 238-4124 ","graberlumber@pcfreemail.com",0,"04/15/2011 12:59:46 PM",,,0,0,0,0,0,"Surfacing",
488,"Zia Toys, Inc.",,"100 Mescalus NW",,"Albuquerque","NM","87107          ","United States","(888) 400-4942","(505) 345-4058",,"http://www.ziatoysinc.com","Wendell Jones","(888) 400-4942 ","wljabq@aol.com",0,"04/15/2011 01:05:48 PM",,,0,0,0,0,0,"Equipment",
489,"JMJ Construction",,"30724 Benton Road","C302-593","Winchester","CA","92596          ","United States","562-318-4733","951-698-0635",,,"Jordan Moisa","562-318-4733   ","jmjconstruction@me.com",0,"04/27/2011 01:48:16 PM",0,"06/19/2012 12:03:57 PM",0,0,0,0,0,"Surfacing",
490,"Community Playgrounds",,"1620 Grant Avenue","Suite 5","Novato","CA","94945          ","United States","415-892-8100","415-892-3132",,"http://www.communityplaygrounds.com","Curt Wear","415-892-8100   ","cwear@commplay.us",0,"05/06/2011 02:19:43 PM",0,"07/05/2012 03:28:42 PM",0,0,0,0,0,"Either",
491,"Imagineo",,"17999 J-A Bombardier",,"Mirabel, Quebec","  ","J7J 2H8        ","Canada","450-420-5389","450-971-1226",,"http://www.imagineo.ca","Elise Plante","450-420-5389   ","eplante@imagineo.ca",0,"05/19/2011 07:57:34 AM",0,"05/23/2011 12:25:20 PM",0,0,0,0,0,"Surfacing",
492,"ImaginationPlay, Inc.",,"1603 Riverview Drive",,"Little Falls","MN","56345","United States","(888) 788-9504","(888) 788-9546",,"http://www.imaginationplay.com","Stan Swetland","(888) 788-9504 ","stan@imaginationplay.com",0,"05/23/2011 12:36:50 PM",,,0,0,0,0,0,"Equipment",
493,"Mountain Mulch Company",,"1000 E. Walnut Street, Ste 504",,"Perkasie","PA","18944","United States","(610) 652-2485","(610) 652-2397",,"www.frontierbulksolutions.com","John DeLuca","(610) 652-2485","jdeluca@frontierbulk.net",0,"05/23/2011 12:40:50 PM",0,"06/06/2011 03:05:27 PM",0,1,0,1,1,"Surfacing",
494,"Play Solutions, Inc.",,"1421 Sheepshead Bay Road","Unit #211","Brooklyn","NY","11235          ","United States","347-765-1271","347-695-1108",,"http://www.play-solutions.com","Harrella Haravey","347-765-1271   ","info@play-solutions.com",0,"06/03/2011 03:30:14 PM",,,0,0,0,0,0,"Either",
495,"Sylviculture & Exploitation Forestiere JMJ Inc.","SylviCultu","2741 Route 148 Ouest",,"Papineauville, Quebec","  ","J0V 1R0        ","Canada","819-427-6247","819-427-5828",,"http://www.sylviculturejmj.com","Daniel St-Jean","819-427-6247   ","jgauthier.jmj@videotron.ca",0,"06/16/2011 02:23:46 PM",0,"04/03/2012 09:29:41 AM",0,0,0,0,0,"Surfacing",
496,"Professional Iron Work",,"PO Box 6387","Santa Rosa Unit","Bayamon","  ","00960          ","Puerto Rico","(787) 798-7212","(787) 798-7223",,"http://www.piwpr.com","Francis Matos","(787) 798-7212 ","francis@piwpr.com",0,"06/23/2011 01:39:57 PM",0,"06/23/2011 01:40:22 PM",0,0,0,0,0,"Equipment",
497,"New Earth, Inc.",,"7800 IH-10 East",,"San Antonio","TX","78219","United States","(936) 756-4846","(936) 756-8594",,"http://www.newearthcompost.com","Mark Manny","210-661-5180","mmanny@newearthcompost.com",0,"06/23/2011 01:53:25 PM",0,"11/28/2011 02:44:25 PM",0,1,0,1,1,"Surfacing",
498,"A & A Playground Services, Inc.",,"4500 N. Hiatus ROad","Suite 217","Sunrise","FL","33351          ","United States","877-677-7709","877-866-9425",,"http://www.aaplaygrounds.com","Michael Engelson","877-677-7709   ","info@aaplaygrounds.com",0,"06/30/2011 11:19:56 AM",,,0,0,0,0,0,"Either",
500,"Play Smart Surfacing Inc.",,"2201 E. Cooley Drive",,"Colton","CA","92324","United States","909-799-8100","909-799-8120",,"http://www.playsmartsurfacing.com","Rafael Alzaga","909-799-8100   ","info@playsmartsurfacing.com",0,"07/05/2011 03:49:55 PM",0,"09/14/2011 07:09:44 PM",0,0,0,0,0,"Surfacing",
501,,,,,,,"       ",,,,,,,,,0,"07/06/2011 10:21:39 AM",0,"10/25/2011 01:42:23 PM",0,0,0,0,0,"Either",
502,"FAHNEU",,"Arica 3883","Estacion Central","Santiago","  ","      ","Chile","56-2-25659300","56-2 4196266",,"http://www.fahneu.cl","Diego Aguilar","56-2-25659300","d.aguilar@fahneu.cl",0,"07/27/2011 09:11:55 AM",0,"07/27/2011 09:24:57 AM",0,1,0,0,0,"Either",
503,"Playground Guardian",,"PO Box 240981",,"Charlotte","NC","28224          ","United States","(800) 438-2780","(704) 525-7356",,"http://www.playgroundguardian.com","Scott Cunningham","(800) 438-2780 ","scott@cunninghamassoc.com",0,"08/02/2011 10:07:25 AM",,,0,0,0,0,0,"Either",
504,"Spectra Contract Flooring",,"7250 Lakeview Drive",,"Parma","OH","44129","United States","440-227-7245","717-736-4336",,"http://www.spectracf.com","Mark Ieropoli","(216) 901-5710 ","mark.ieropoli@spectracf.com",0,"08/02/2011 10:47:21 AM",,,0,1,0,1,1,"Surfacing",
505,"The Missouri Mulch Co., Inc.",,"55 Stave Mill Road",,"New Florence","MO","63363          ","United States","(573) 252-2520","(573) 252-2630",,"http://www.missourimulch.com","Scott Hasekamp","(573) 252-2520 ","scott.hasekamp@missourimulch.com",0,"08/09/2011 11:49:47 AM",0,"12/14/2011 02:01:58 PM",0,1,0,1,1,"Surfacing",
506,"Playcare & Design, Inc.",,"12830 Britannia Road",,"Milton, Ontario","  ","L9T 7G5        ","Canada","905-203-0816","905-203-0817",,"http://www.fibertop.ca","Andy Crocket","905-203-0816   ","andy@fibertop.ca",0,"09/19/2011 09:03:24 AM",0,"02/08/2012 01:13:41 PM",0,1,0,1,1,"Surfacing",
507,"Safety Surface, Inc.",,"3009 Raintree Road",,"Oklahoma City","OK","73120          ","United States","(866) 884-2005","(405) 302-5161",,"http://www.safetysurface.net","Gary Caskey","(866) 884-2005 ","safetysurface@cox.net",0,"09/19/2011 09:17:17 AM",0,"09/19/2011 09:21:19 AM",0,0,0,0,0,"Surfacing",
508,"Eastern Shore Forest Products, Inc.",,"3667 St. Lukes Road",,"Salisbury","MD","21804          ","United States","(800) 936-8524","(410) 548-7136",,"http://www.esforest.com","Sara Hall","(410) 742-5540 ","shall@esforest.com",0,"09/27/2011 02:22:51 PM",0,"09/27/2011 02:29:59 PM",0,1,0,1,1,"Surfacing",
510,"Sawle Mill, Inc.",,"PO Box 707",,"Columbus","NE","68602          ","United States","(800) 473-0179","(402) 564-9508",,"http://www.sawlemill.com","William Abbott","(800) 473-0179 ","hunt@hunt-ent.com",0,"10/11/2011 03:38:05 PM",0,"05/31/2012 03:09:08 PM",0,0,0,0,0,"Surfacing",
511,"Suwannee Lumber Company",,"PO Box 5090","40 SW 10th Street","Cross City","FL","32628          ","United States","(800) 985-9939","(352) 498-2427",,"http://www.suwanneelumber.com","Phil Amrell","(800) 985-9939 ","Philip_Amrell@bellsouth.net",0,"10/28/2011 09:01:14 AM",0,"12/14/2011 01:58:30 PM",0,0,0,0,0,"Surfacing",
512,"Canyon Country Mill & Resources, Inc.",,"680 S. Main Street, PO Box 534",,"Fredonia","AZ","86022          ","United States","(928) 643-7007","(928) 643-7023",,"http://canyoncountrymillshavings.com/","Larry N. Reidhead","(928) 643-7007 ","canyoncountrymillr@fredonia.net",0,"10/28/2011 03:00:37 PM",0,"02/08/2012 03:17:53 PM",0,1,0,1,1,"Surfacing",
513,"Childs Play of Colorado LLC",,"9956 W. Remington Place","Suite A-10-186","Littleton","CO","80128          ","United States","(720) 962-4592","(303) 484-2091",,"http://www.childsplaysurfaces.com","J.P. Guindon","(720) 962-4592 ","jp.childsplay@me.com",0,"11/11/2011 03:01:28 PM",0,"11/11/2011 03:02:41 PM",0,0,0,0,0,"Either",
514,"March's Mulch",,"4208 S. Goff",,"Oklahoma City","OK","73119          ","United States","(405) 681-3260","(405) 681-6215",,,"Tom March","(405) 681-3260 ","A-Team1@cox.net",0,"11/11/2011 03:02:18 PM",0,"05/25/2012 01:14:52 PM",0,0,0,0,0,"Surfacing",
515,"Bechtel Landscape Supply, LLC",,"4455 Highway 144",,"Slinger","WI","53086          ","United States","(262) 644-9486","(262) 644-6960",,"http://www.bechtellandscape.com","Dale Bechtel","(262) 644-9486 ","bechtel@nconnect.net",0,"11/30/2011 08:38:53 AM",0,"05/17/2012 08:36:03 AM",0,0,0,0,0,"Surfacing",
516,"Sunshine Playground Equipment Ltd.",,"Box 4, Site 4, RR2",,"Tofield, Alberta","  ","T0B 4J0        ","Canada","(780) 662-2716","(780) 662-4771",,"http://www.sunshineplaygrounds.com","Kari Van Herk","(780) 662-2716 ","sunshine@sunshineplaygrounds.com",0,"12/05/2011 01:04:53 PM",0,"12/05/2011 01:10:34 PM",0,0,0,0,0,"Equipment",
517,"Charlesview Transport, Inc.",,"1620 Cypress Gardens Road",,"Moncks Corner","SC","29461          ","United States","(843) 761-7955","(843) 761-5920",,"http://www.permalife.com","Dave Harden","(843) 761-7955 ","dave.harden@ectirerecycling.com",0,"12/05/2011 01:19:06 PM",0,"06/11/2012 02:51:23 PM",0,0,0,0,0,"Surfacing",
518,"Ultimate Shade",,"5869 S. Kyrene Road","Suite 8","Tempe","AZ","85283          ","United States","480-775-7245","480-775-7247",,"http://www.ultimateshadeusa.com","Joy Whitfield","480-775-7245   ","joy@ultimateshadeusa.com",0,"12/08/2011 10:12:17 AM",0,"12/08/2011 10:15:18 AM",0,0,0,0,0,"Either",
519,"Holland Mulch, Inc.",,"135 Hay Road",,"Edgemoor","DE","19809          ","United States","302-765-3100","302-765-3700",,"http://www.hollandmulch.com","John Duffy Sr.","302-765-3100   ","hollandmulch@aol.com",0,"12/28/2011 11:54:25 AM",0,"07/10/2012 10:17:38 AM",0,1,0,1,1,"Surfacing",
520,"Hesscor, Inc.",,"1548 E. Main St.",,"Mesa","AZ","85203          ","United States","(480) 464-2700","(480) 464-2705",,"http://www.hesscor.com","Steve Hess","(480) 464-2700 ","steve@hesscor.com",0,"01/17/2012 08:00:12 AM",0,"01/17/2012 03:40:39 PM",0,1,0,1,1,"Surfacing",
522,"Columbia Cascade Company",,"1300 SW Sixth Avenue, Suite 310",,"Portland","OR","97201          ","United States","(503) 223-1157","(503) 223-4530",,"http://www.timberform.com","Steve Porter","(503) 223-1157 ","s.porter@timberform.com",0,"01/24/2012 02:02:32 PM",0,"02/15/2012 11:02:44 AM",0,1,0,1,1,"Equipment",
523,"Hughes Mulch Products",,"3211 Keystone Drive",,"Omaha","NE","68134          ","United States","(402) 991-7900",,,"http://www.hughesmulch.com","Stacy Hughes","(402) 991-7900 ","stacy@hughesmulch.com",0,"02/07/2012 09:06:49 AM",0,"06/06/2012 03:00:48 PM",0,1,0,1,1,"Surfacing",
524,"State Rubber & Environmental Solutions, LLC",,"1390 County Road 344","PO Box 732","Denver City","TX","79323          ","United States","(806) 592-3803","(806) 592-3806",,"http://www.staterubber.net","Dan Swanson","(806) 592-3803 ","jerry@staterubber.net",0,"02/21/2012 09:57:15 AM",0,"02/23/2012 02:30:19 PM",0,0,0,0,0,"Surfacing",
525,"Cousineau Forest Products, Inc.",,"PO Box 2130",,"Henniker","NH","03242          ","United States","(800) 258-4718","(603) 428-7839",,"http://www.cousineaus.com","Jon Baker","(800) 258-4718 ","jon@cousineaus.com",0,"03/01/2012 10:15:30 AM",,,0,1,0,1,1,"Surfacing",
526,"Shaw-Southwest Greens International",,"185 South Industrial Blvd.",,"Calhoun","GA","30701","United States","(877) 260-7888","(706-625-7964",,"http://www.southwestgreens.com","Tim Hopkins","(404) 432-6185","tim.hopkins@shawinc.com",0,"03/01/2012 10:18:20 AM",0,"03/01/2012 10:22:24 AM",0,1,0,1,1,"Surfacing",
527,"Timbertec Inc.",,"PO Box 812","Kentville","Kings County, Nova Scotia","  ","B4N 4H8        ","Canada","(800) 667-7529","(902) 679-1959",,"http://www.timbertec.ca","Scott Chisholm","(902) 679-1020 ","info@timbertec.ca",0,"03/29/2012 11:43:01 AM",,,0,0,0,0,0,"Equipment",
528,"Schoolscapes Inc.",,"38 West Main Street",,"Clifton Springs","NY","14432          ","United States","(315) 906-0050",,,"http://www.schoolscapes.com","Chris Leavold","(315) 906-0050 ","chris@schoolscapes.com",0,"04/10/2012 11:51:58 AM",,,0,1,0,0,0,"Either",
529,"S&S Tree Specialists",,"405 Hardman Avenue",,"South St. Paul","MN","55075          ","United States","(651) 451-8097","(651) 451-1787",,"http://sstree.com","Rick Hogan","(651) 451-8097 ","rick@sstree.com",0,"04/10/2012 11:53:21 AM",,,0,0,0,0,0,"Surfacing",
530,"Reese Construction Co., Inc.",,"3720 Lucky Drive",,"Apex","NC","27539          ","United States","(919) 329-5501","(919) 329-5503",,,"Clint Reese","(919) 329-5501 ","reeseconstruction@hotmail.com",0,"04/20/2012 02:00:28 PM",,,0,0,0,0,0,"Surfacing",
531,"Zhejiang Five Loaves Two Fish Industrial Co., Ltd.",,"No 58. East Yuanfeng Road","Wangjiangjing Town, Xiuzhou District","Jiaxing City, Zhejiang","  ","314001         ","China","86-573-89977066","86-573-89977088",,"http://www.loafigroup.com","Carrie Ye","86-573-89977066","Carrieye2010@gmail.com",0,"04/20/2012 02:05:13 PM",,,0,0,0,0,0,"Equipment",
532,"Quality Mulch Products",,"PO Box 152",,"Clay City","IN","47841          ","United States","(812) 249-0114","(812) 939-3220",,,"Kent Booe","(812) 249-0114 ","booe379@aol.com",0,"04/20/2012 02:09:02 PM",,,0,1,0,1,1,"Surfacing",
533,"EcoSoft Rubber Corporation",,"PO Box 516",,"Mineral","VA","23117","United States","(571) 766-8524","(540) 967-0203",,"http://www.ecosoftturf.com","Trace Woodbury","(571) 766-8524","twoodbury@ecosoftturf.com",0,"04/20/2012 02:10:28 PM",,,0,0,0,0,0,"Surfacing",
534,"D&M Trucking & Timber Harvesting Inc.",,"102 Sawmill Road",,"St. Cloud","FL","34773          ","United States","(407) 908-8803","(407) 892-6852",,,"Monnette Vanosdol","(407) 908-8803 ",,0,"04/30/2012 11:49:51 AM",,,0,0,0,0,0,"Surfacing",
535,"Cemrock Naturalistic Environments",,"4790 S. Julian Avenue",,"Tucson","AZ","85714          ","United States","(520) 571-1999","(520) 571-1888",,"http://www.cemrock.com","Evan Swanson","(520) 571-1999 ","eswanson@cemrock.com",0,"05/02/2012 09:07:18 AM",0,"06/05/2012 02:58:20 PM",0,0,0,0,0,"Either",
536,"Pala Wood Services Co., Inc.",,"22566 Patterson Road-Co Rte 32",,"Watertown","NY","13601          ","United States","315-788-3713","315-788-5215",,"http://www.palawood.com","Wayne Sech","315-788-3713   ","wayne@palawood.com",0,"05/10/2012 11:28:08 AM",0,"05/10/2012 11:29:40 AM",0,1,0,1,1,"Surfacing",
537,"Swring, Inc.",,"PO Box 1053",,"Airway Heights","WA","99001          ","United States","509-701-5388","509-244-9300",,,"Emory Clark","509-701-5388   ","info@swring.com",0,"05/14/2012 03:03:45 PM",,,0,0,0,0,0,"Equipment",
538,"Dominica Recreation Products",,"PO Box 520700",,"Longwood","FL","32752          ","United States","407-331-0101","407-331-4720",,"http://www.playdrp.com","Rob Dominica","407-331-0101   ","robd@playdrp.com",0,"05/16/2012 07:51:08 AM",,,0,0,1,0,0,"Either",
539,"Rubber Venture Corporation",,"364074 McBeth Road","Ontario","Salford","  ","N0J1W0         ","Canada","(519) 485-6202","(519) 485-6420",,,"Martin Folkema","(519) 485-6202 ","folkemafarms@sympatico.ca",0,"05/22/2012 02:17:10 PM",,,0,0,0,0,0,"Surfacing",
540,"Klassen Wood Company, Ltd. ",,"PO Box 8000-544","British Columbia","Abbotsford","  ","V2S6H1         ","Canada","(604) 853-1075","(604) 853-1091",,"http://www.klassenwoodco.com","John-Mark Ferguson","604-341-5452   ","johnmark@klassenwoodco.com",0,"05/23/2012 12:05:22 PM",0,"05/23/2012 12:12:47 PM",0,1,0,1,0,"Surfacing",
541,"Nolt's Mulch Products",,"3587 Old Harrisburg Road",,"Gettysburg","PA","17325          ","United States","(717) 334-0849","(717) 334-0833",,"http://www.noltsmulch.com","Matt Nolt","(717) 334-0849 ","noltsmulch@centurylink.net",0,"06/01/2012 11:52:35 AM",0,"06/19/2012 12:15:35 PM",0,0,0,0,0,"Surfacing",
542,"RVH Mulch Supply, LLC",,"455 W. Main Street",,"Wyckoff","NJ","07481          ","United States","(201) 891-7100","(201) 891-7102",,"http://www.rvhmulchsupply.com","Bruce Peters","(201) 891-7100 ","mulchproducts@yahoo.com",0,"07/05/2012 02:56:25 PM",0,"07/05/2012 02:56:56 PM",0,0,0,0,0,"Surfacing",
543,"Sii Recreational Products (Playland, WOW, and Sii ",,"210 Industrial Court",,"Carrollton","GA","30117          ","United States","(770) 834-6120","(770) 834-6495",,"http://www.buysii.com","Lamar McBurnett","(678) 390-1919 ","lmcburnett@siibrands.com",0,"07/11/2012 10:39:01 AM",0,"07/17/2012 02:12:34 PM",0,0,0,0,0,"Equipment",
544,"Gordon Johncock Landscape Supply Co.",,"5874 Heath road",,"South Branch","MI","48761          ","United States","989-257-4444","989-257-5117",,"http://www.johncocklandscapesupply.com","Valerie Heffelbower","989-257-4444   ","sales@johncocklandscapesupply.com",0,"07/13/2012 01:18:37 PM",,,0,0,0,0,0,"Surfacing",
545,"IPEMA",,"2207 Forest Hills Drive",,"Harrisburg","PA","17112","United States","717-238-1744","717-238-9985",,"http://www.ipema.org","Denise Calabrese","717-238-1744","info@ipema.org",,,,,0,0,0,0,0,"Either","DFD54CA2-F494-4525-B8A338334D4F6CAA"
546,"ID Sculpture, LLC",,"591 South Boulevard",,"Gunnison","CO","81230","United States","970-641-1747","970-641-1036",,"http://www.idsculpture.com","Andris Zobs","970-641-1747","andris@idsculpture.com",,,,,0,1,0,1,1,"Equipment","36FBA8B5-1954-497E-B80066C8E0A89C3F"
547,"FLEX FIBER",,"1606 4th Avenue NW, Suite B",,"West Fargo","ND","58078","United States","(855) 268-7529","(855) 268-7529",,"http://www.myturnplaysystems.com","Zach Fluto","(855) 268-7529","sales@myturnplaysystems.com",,,,,0,1,0,1,1,"Surfacing","887F9E75-2ED0-4B10-A5C8C64DE47CC363"
548,"Good Wood, Inc.",,"PO Box 100",,"Avoca","AR","72711","United States","479-636-7171","479-636-7188",,"http://www.etw99.com/","Lynn Askins","501-354-6086","lynn@etw99.com",,,,,0,0,0,0,0,"Surfacing","39DE4921-EB8C-454B-BBFCF59B1B53BE8D"
549,"American Playground Surfacing",,"848 Marshall Phelps Road",,"Windsor","CT","06095","United States","413-221-5231","860-683-2585",,"http://www.americanplaygroundsurfacing.net/","Peter Martyn","413-221-5231","Peter@ambmps.com",,,,,0,0,0,1,0,"Surfacing","C0E95EF7-07D9-4A71-B59A4B53ACB82624"
550,"Nirbo Aquatic, Inc.",,"6415 Northeast Drive","Unit 40","Mississauga","On","L4U 1X1","Canada","905-766-2463","905-766-4467",,"http://www.nirbo.com","Salih Sokmen",,"sales@nirbo.com",,,,,0,0,0,0,0,"Equipment","4C92255D-41B8-4B21-98646BCD11A51DA3"
551,"Upstate Materials, Inc.",,"113 Village Lane",,"Easley","SC","29642","United States","(864) 220-5154","(864) 269-5692",,"http://www.upstatematerialsandmulch.com","Mark Welborn","(864) 220-5154","markwel@netscape.com",,,,,0,1,0,1,1,"Surfacing","FB27EB08-8F1A-4DAB-9D364DB1A20972FC"
552,"Corsaw Hardwood Lumber, Inc.",,"26015 N. County 2",,"Smithfield","IL","61477","United States","309-293-2055","309-293-4991",,"corsawhardwoodlumber.com","Chuck Corsaw",,"corsawlumber@mymctc.net",,,,,0,1,0,0,0,"Surfacing","91B033FD-BF98-45E2-B8224E6E5275EEFC"
553,"Rainbow of Central IL",,"2000 W. Pioneer Pkwy","Suite 6B","Peoria","IL","61615","United States","309-219-2907","309-713-2013",,"http://www.rainbowplaypeoria.com/","Carl Lathrop",,"clathrop500@sbcglobal.net",,,,,0,0,0,0,0,"Surfacing","8C77D0A6-347A-4151-870AA56292237DDE"
554,"American Tire Recycling Group, LLC",,"3551 N.W. 116th Street",,"Miami","FL","33167","United States","(305) 688-8566","(305) 688-8533",,"http://www.americantirerecycling.com","Alfredo Reviati","(305) 688-8566","areviati@americantirerecycling.com",,,,,0,1,0,1,1,"Surfacing","0F015760-79AE-4068-A68567CCB3728334"
555,"Rocky Top Resources, Inc.",,"1755 E. Las Vegas Street",,"Colorado Springs","CO","80903","United States","(719) 579-9103","(719) 579-9104",,"http://www.rockytopresources.com","Jared Martin","(719) 579-9103","jared@rockytopresources.com",,,,,0,0,0,1,0,"Surfacing","3FEFEAEB-B7C3-4B25-A50681C003B95DBE"
556,"Rubber 2 Go, LLC",,"3551 North West 116th Street",,"Miami","FL","33167","United States","305-688-8566","305-688-8533",,"http://www.americantirerecycling.com/","Alfredo Reviati","305-688-8566","areviati@gmail.com",,,,,0,1,0,1,1,"Surfacing","0019AAFE-DB22-4CA0-8F5FD187B68145EB"
557,"H5 Farms",,"8041 ST Hwy 87 N",,"Timpson","TX","75975","United States","936-254-9810","936-254-9812",,"http://www.harknesslitterservice.com/","Brian Harkness","936-598-6460","bharkness89@att.net",,,,,0,1,0,1,1,"Surfacing","06C54C59-1D78-4054-82B55DF6DB658EF2"
558,"Delta Timber & Landscape Supply",,"519 Hwy 92",,"Delta","CO","81416","United States","970-874-0849","970-874-0573",,"http://www.deltatimber.com/","Eric Sorenson","(970) 323-6300","eric@deltatimber.com",,,,,0,1,0,1,1,"Surfacing","5FA4F197-ECE9-43C4-86DB205F32C29760"
559,"Thomson Wood Products",,"PO Box 169",,"Kennard","TX","75835","United States","936-544-6151","936-655-2123",,"http://thomsonwoodproducts.com/","Michael Thomson","936-544-6151","thomwoodpro@yahoo.com",,,,,0,0,0,0,0,"Surfacing","DEE0775B-8F3F-4EAE-895466FEA33501B4"
560,"Nature's Best Organics of TN, LLC",,"8707 Joe Daniels Road",,"Knoxville","TN","37931","United States","865-927-7646","865-927-7647",,"http://naturesbestorganicstn.com/","Mike Stanton","865-927-7646","mstanton@nbotn.com",,,,,0,1,0,1,1,"Surfacing","D656222D-0880-4D6A-A9F2DEBAFCB5703B"
561,"ThermaGreen Enviornmental",,"180 Bartor Road",,"Toronto","On","M9M 2W6","Canada","416-782-4492","416-782-2190",,"http://www.thermagreen.com","Susana Guedes",,"sguedes@efwalter.com",,,,,0,0,0,0,0,"Surfacing","7D506515-3191-481C-A6CDB03632D50477"
562,"Synthetic Turf International, LLC, Controlled Prod",,"200 Howell Drive",,"Dalton","GA","30721","United States","(800) 405-7455","(706) 529-5746",,"http://www.synthetic-turf.com","Dakota Harp","(800) 405-7455","Dakota@synthetic-turf.com",,,,,0,1,0,1,1,"Surfacing","D14D2AE6-C3D4-4F62-A3BD141138222288"
563,"Whittlesey Landscape Supplies",,"3219 S. 1 H 35",,"Round Rock","TX","78664","United States","512-989-7625","512-491-7195",,"http://www.989rock.com","Blake Whittlesey",,"info@989rock.com",,,,,0,1,0,1,1,"Surfacing","5484AD46-25A3-4DD7-AF2AE47517D66F71"
564,"Diamond Street Recycling",,"5800 W. Diamond Street",,"Boise","ID","83705","United States","(208) 322-3050","(208) 322-2992",,"http://www.diamondstreetrecycling.com","Dale Hope","(208) 322-3050","magnumdh@clearwire.net",,,,,0,0,0,0,0,"Surfacing","61532E65-314E-4856-8521D7FD6BE6D189"
565,"Pro-Techs Surfacing, LLC",,"PO Box 301",,"Sharon Center","OH","44274","United States","330-576-6058","330-576-6786",,"http://www.pro-techssurfacing.com/","George Tomko","330-576-6058","gtomko@pro-techssurfacing.com",,,,,0,1,0,1,1,"Surfacing","5F4F0DD1-3733-41FF-B778FF79892CD68C"
566,"Flaman Fitness",,"120 Robin Cres",,"Saskatoon","SK","S7L 6M7","Canada","306-978-1999","306-934-5152",,"http://www.flamanfitness.com","Jeff Basset","306-978-1999","jeff.basset@flaman.com",,,,,0,0,1,0,0,"Either","F7E791EE-3A92-439D-9BEE0C0256AD50D1"
567,"Tri-C Manufacturing, Inc./Tire Recycling Division",,"512 Harbor Blvd",,"West Sacramento","CA","95691","United States","916-371-1700","916-371-8181",,"http://www.trictire.com","Mike Hunsaker","916-371-1700","mh.trictire@yahoo.com",,,,,0,0,0,0,0,"Surfacing","C262814F-0684-4847-91A7837E3945D3F5"
568,"Cannonsburg Wood Products ",,"10251 Northland Drive ",,"Rockford","MI","49341","United States","616-866-4459","616-866-7090",,"http://www.cannonsburgwoodproducts.com","Belinda Boorsma","(618) 866-4459","bboorsma@cannonsburgwoodproducts.com",,,,,0,1,0,1,1,"Surfacing","4A4A1E32-6F59-42EE-A54E1C8066292683"
569,"Shades of Green, Inc.",,"2000 Hunter Road","Suite B","Bristol","PA","19007","United States","215-788-5001","215-788-5099",,"http://www.shadesofgreenpa.com","Michael DiNardo","215-788-5001","info@shadesofgreenpa.com",,,,,0,0,0,0,0,"Surfacing","F497AF88-DE44-4098-9D4B284ED84BBED6"
570,"Superior Mulch, Inc.",,"9621 SR#7",,"Boynton Beach","FL","33472","United States","561-734-7300","561-734-3013",,"http://www.thebushelstop.com","Carol Marrero","561-734-7300","carol@atlaspeatandsoil.com",,,,,0,0,0,0,0,"Surfacing","C42F8330-E6A1-473E-B5E6DFCF4AA0934E"
571,"FCO Inc., dba Fagen Trees & Chips",,"1328 NE Seward Avenue",,"Bend","OR","97701","United States","541-382-4997","(541) 382-9470",,"http://www.bendoregontreeservice.com","Wade Fagen","541-382-4997","TFagen@bendcable.com",,,,,0,0,0,0,0,"Surfacing","A063AF5F-8BF3-426C-9A57C6E4C1189445"
572,"Anderson Mulch & Soil, LLC",,"1115 Columbia Avenue",,"Tompkinsville","KY","42167","United States","(270) 487-9897","(270) 487-9441",,"http://www.ralumber.com","Eddy Burnette","(270) 487-9897","eburnette@ralumber.com",,,,,0,1,0,1,1,"Surfacing","BD234857-DED2-406F-BD42D257D9738D17"
573,"Project Innovations, Inc.",,"518 East Lemon Street","Suite 400","Tarpon Springs","FL","34689","United States","(727) 938-4422","(727) 939-8811",,"http://www.myusaproducts.com","Wayne Armand","(727) 938-4422","wayne@myusaprojects.com",,,,,0,0,1,0,0,"Either","F82F9BC8-D594-4241-B29BD1B6B6648025"
574,"Greenrise Technologies",,"1819 Ward Drive",,"Murfreesboro","TN","37129","United States","615-907-7460","615-895-5884",,"http://www.greenrisetech.com","Mary Pennington","615-907-7460","maryp@greenrisetech.com",,,,,0,0,0,0,0,"Surfacing","AC05E5CD-D1FC-40D3-940CE666E7B38E0C"
575,"Viva Recycling of SC, LLC",,"111 Old Depot Road",,"Moncks Corner","SC","29461","United States","843-761-7955","843-761-5920",,"http://www.permalife.com","Antha Willis","843-761-7955","antha.willis@vivarecycling.com",,,,,0,0,0,0,0,"Surfacing","23B92B13-B8BE-4629-ADA14B0D6192A2B1"
576,"Nate's Tree Service, LLC",,"2218 E 6th Avenue",,"Stillwater","OK","74074","United States","405-372-8733","405-743-4156",,"http://www.natestreeservice.com","Nate Priest","405-372-8733","nate@natestreeservice.com",,,,,0,1,0,0,0,"Surfacing","3E12B7BB-0815-4CAA-84087DE106FF8BF0"
577,"Building Products Plus",,"12317 Almeda Road",,"Houston","TX","77045","United States","713-434-8008","717-443-7068",,"http://www.buildingproductsplus.com/","Rocky Arnold","713-434-8008","rea.1@buildingproductsplus.com",,,,,0,0,0,1,1,"Surfacing","97FBB0A4-8057-4A81-8D38F811E2861EB9"
578,"Benchmark Companies, LLC",,"PO Box 331516",,"Murfreesboro","TN","37133","United States","615-456-7302",,,"http://www.benchmarkcos.com","Scott Graby","615-456-7302","scott@benchmarkcos.com",,,,,0,1,0,1,1,"Surfacing","AEF81FE7-6CE2-48D8-AABF02B495420B5A"
579,"Mountain West, LLC",,"4212 S Highway 191",,"Rexburg","ID","83440","United States","208-359-5640","208-359-0544",,"http://www.mwpllc.com","Jeff Rydalch","208-359-5640","jrydalch@mwpllc.com",,,,,0,1,0,1,1,"Surfacing","CF22859E-56C6-4677-89B3B3B3BFBB5319"
580,"Playdale Playgrounds, Ltd.",,"Haverthwaite",,"Ulverston, Cumbria"," ","LA12 8AE","United Kingdom","0044 15395 31561","0044 15395 31539 ",,"www.playdale.co.uk","Barry Leahey","0044 15395 3156","barry.leahey@playdale.co.uk",,,,,0,1,0,1,1,"Equipment","A2A5183A-BFEE-4118-81596C80C4EACE91"
581,"Backwoods Wood Products, LLC",,"PO Box 1506",,"Shawnee","OK","74802","United States","(405) 432-1007","(405) 878-8028",,,"Anthony Wall","405-432-1007","twall2601@aol.com",,,,,0,0,0,0,0,"Surfacing","05C2340C-B11D-4AC2-AE8EF7BE1A564C50"
582,"Green Field Fence, Inc.",,"4051 Oceanside Blvd.",,"Oceanside","CA","92056","United States","951 514-1568","760-724-8483",,"http://www.greenfieldfenceinc.com","Mike McLaughlin","951-514-1568","mike@greenfieldfenceinc.com",,,,,0,0,0,0,0,"Surfacing","9CB0984C-F0A5-4E71-80DF4629AF8E24B7"
583,"CRM of America, LLC",,"11400 E. Pecos Road",,"Mesa","AZ","85212","United States","(480) 987-3006","(480) 987-0965",,"http://www.nrcco.com","Dawn Helms","(408) 987-3006","dhelms@crmrubber.com",,,,,0,0,0,0,0,"Either","03BB6B3F-260D-4AAB-BCB783D046830170"
584,"Christopher Dale Wolf dba California Recreation In",,"PO Box 1037",,"Murrieta","CA","92564","United States","951-356-6600",,,"http://cal-recreation.com/","Chris Wolf","951-356-6600","cwolf57973@aol.com",,,,,0,0,0,0,0,"Either","5DFBD257-FB14-45E0-AD2EEF34CEBAAFAA"
585,"Children's Products and Metal Fabrication Factory",,"PO Box 2263",,"Damman",,"31451","Saudi Arabia","+966 13 812 1125","+966 13 812 1043",,"http://www.mffgroup.com/","Shadman Rashidi","+966 13 812 112","shadman@mffgroup.com",,,,,0,0,0,0,0,"Either","7B31E013-8B52-4B95-8A64F4A44ACEE873"
586,"Naturomulch, LLC dba Texas Playground Mulch",,"602 Davis Street"," ","Grand Prairie","TX","75050","United States","214-227-2212","214-432-7522",,"http://www.naturomulch.com","Omprakash Goyal","214-227-2212","naturomulch@gmail.com",,,,,0,1,0,1,1,"Surfacing","36C993FA-7E8F-440E-B7B24BF13280EE78"
587,"American Park and Recreation Company, Inc.",,"8806 Venture Cove",,"Tampa","FL","33637","United States","800-245-7777","800-393-1997",,"http://www.apark.com/","John Ervin","800-245-7777","jervin@winn-ervin.com",,,,,0,0,1,0,0,"Either","31C9F1AB-A077-42EF-8C412C311B50247E"
588,"GWG Wood Group, Inc.",,"2797 Miller Ferry Road",,"Ferris","TX","75125","United States","972-842-8996","972-544-3900",,"http://www.gwgwoodgroup.com","Kirk Grady","972-872-8996","bbnkgrady@aol.com",,,,,0,1,0,1,1,"Surfacing","9370C191-2135-4A1C-A6CE3ACD0483FDD9"
589,"The Scotts Company",,"14111 Scotts Lawn Road",,"Marysville","OH","43041","United States","937-645-2523","937-644-7075",,"http://www.scotts.com","Laura Briggs","937-645-2523","laura.briggs@scotts.com",,,,,0,0,0,0,0,"Surfacing","58757F2B-36BD-4735-95E1FEA30E35EAB3"
590,"Victory Gardens, Inc.",,"357 West Street Road",,"Warminster","PA","18974","United States","215-443-5665","215-443-5590",,"http://www.victorygardensinc.com","Shannon Connoly","215-443-5665","shannon@victorygardensinc.com",,,,,0,0,0,0,0,"Either","8B946554-E348-4BFF-AC3D968831E1C9F1"
591,"Lee's GreenScapes, Inc.",,"PO Box 346",,"Sumterville","FL","33585","United States","813-917-5799","863-519-6462",,"http://www.leesgreenscapes.com","Bruce Lee","813-917-5799","brucelee1251@gmail.com",,,,,0,1,0,1,0,"Surfacing","B05B5770-FAB3-4CE6-82F3D041EFD0E920"
592,"River Valley Recreation",,"1178 Nursery Road",,"Wrightsville","PA","17368","United States","717-252-1894","717-252-0700",,"http://www.rivervalleyrecreation.com","Kory Bortner","717-252-1894","kbortner@rivervalleylandscapes.com",,,,,0,1,0,1,1,"Either","57C94395-1A13-46E5-BD2DAF353B66B5F7"
593,"Les Mousses de L'Estrie, Inc.",,"121 Rue Industrielle",,"Lambton","QC","G0M 1H0","Canada","418-486-2700","418-486-7309",,"http://www.lesmoussesdelestrie.com","Martin Proteau","418-486-2700","ma.proteau@tellambton.net",,,,,0,1,0,1,1,"Surfacing","E2FBF93E-C069-4713-A10FA5006FEA196B"
594,"CrossRoads Mulch, Inc.",,"39252 Winchester Road","#107, 132","Murrieta","CA","92563","United States","(951) 541-2761","(951) 526-2759",,"http://www.crossroadsmulch.com","Chuck Cross","(951) 541-2761","chuck@crossroadsmulch.com",,,,,0,0,0,0,0,"Surfacing","8D6CACA3-2F9C-4D4D-A240F12BFD59002C"
595,"Rocky Mountain Compost, Inc.",,"3060 Farley Lane",,"Billings","MT","59101","United States","(406) 690-4451",,,"http://rockymountaincompost.com","Bryce Glen","(406) 690-4451","info@rockymountaincompost.com",,,,,0,1,0,1,1,"Surfacing","CDB07B34-B3C3-41F1-8F7F1FBA7F4C3331"
596,"Zhejiang Feiyou Kangti Amusement Facilities Co., L",,"#16 Chuangqiang Road., Light Ind. Zone","Lucheng Dist.","Wenzhou","Zh","325019","China","+86-577-8645-8291","+86-577-8645-7291",,"http://www.zjfeiyou.com","Jieren Bai","+86-577-8645-82","feiyou@zjfeiyou.com",,,,,0,0,0,0,0,"Equipment","25DB7CAD-4795-428E-B61E916815E0C470"
597,"The 4 Kids, Inc.",,"4400 Oneal Street",,"Greenville","TX","75401","United States","903-454-9237","903-454-3642",,"http://www.the4kids.com","Toni Gambill","903-454-9237","toni@the4kids.com",,,,,0,0,0,0,0,"Either","19DB4F9E-53B0-4F8D-93411C37FF72AE61"
598,"PLAYTIME, LLC",,"13310 James E. Casey Avenue",,"Englewood","CO","80112","United States","303-662-0302","303-662-0254",,"http://www.PLAYTIME.com","Ed Biegel","303-662-0302","Ed@PLAYTIME.com",,,,,0,1,0,0,0,"Either","E7FB18A1-0FC6-4993-8124448C18A1AE59"
599,"Blairsville Environmental Rubber, LLC",,"5490 Rt 217 N",,"Blairsville","PA","15717","United States","412-600-2844",,,,"Bill Johnson","412-600-2844","BerLLC1@yahoo.com",,,,,0,0,0,0,0,"Either","13B3F970-6E00-4909-A2007E0B126FE483"
600,"Gen-Rubber, LLC",,"352 South Street",,"Galion","OH","44833","United States","440-655-3643","440-582-2648",,"http://www.rubber-master.com","Andrea Gerich","419-462-2688","rubbereverything@hotmail.com",,,,,0,0,0,0,0,"Surfacing","F66FE932-326E-4939-B87315A600922BF8"
601,"Ameri-Sof Surfaces, Inc.",,"11360 Smith Road",,"Spencer","OH","44275","United States","330-416-9168","330-648-1099",,"http://www.ameri-sofsurfaces.com","Jeremy Barry","330-416-9168","jeremy@ameri-sofsurfaces.com",,,,,0,0,0,0,0,"Either","EC58C72E-559D-478E-9F8540F85042F320"
602,"Mt. Taylor Machine,LLC dba Mt.Taylor Manufacturing",,"PO Box 2307",,"Milan","NM","87021","United States","(505) 287-9469",,,"http://www.mttaylormanufacturing.com","G. Matthew Allen","(505) 287-9469","mallen7cities@gmail.com",,,,,0,1,0,1,1,"Surfacing","20272941-61DF-4F2A-AD2309891FF843CD"
603,"Pro-Landscape Structure Sdn Bhd",,"No 53, JLN BRP 8/2","Bukit Rahman Putra Industrial Park","SG Buloh","Se","47000","Malaysia","+60361403018","+60361403027",,"http://www.prolandscape.com.my","Faris Abd Halim","+60361403018","info@prolandscape.com.my",,,,,0,1,0,0,0,"Either","6CBB7759-45CB-4C0A-A1FC5C3DB9DD6824"
604,"Standard Pallet Co.",,"5604 Natures Shores Drive",,"Rock Island","WA","98850","United States","(509) 886-7881","(509) 886-7882",,,"Kristin Donithan","(509) 886-7881","standardpalletco@yahoo.com",,,,,0,0,0,0,0,"Surfacing","E45A90C5-A088-4093-862C23C376C3F6A5"
605,"TaylormadeCo DBA Ecoturf Surfacing",,"7356 Holliday Drive",,"Kansas City","KS","66106","United States","(913) 713-1573","(913) 548-0668",,"http://www.ecoturfsurfacing.com","Lauren Harris","(913) 713-1573","lauren@playgroundpeople.com",,,,,0,0,0,0,0,"Either","2A863C80-2586-4702-BD7206046D3E0B57"
606,"Conner Industries, Inc.",,"3800 Sandshell Drive",,"Fort Worth","TX","76137","United States","(817) 349-4855","(817) 349-4856",,"http://www.connerindustries.com","Steve Briscoe","(817) 349-4855","sbriscoe@connerindustries.com",,,,,0,0,0,0,0,"Surfacing","FDB719C4-F1BC-4667-80F32795B48700C0"
607,"National Recreation and Park Association",,"22377 Belmont Ridge Road",,"Ashburn","VA","20147","United States","703-858-2149",,,"http://www.nrpa.org","Caroline Smith","703-858-2149","csmith@nrpa.org",,,,,0,0,0,0,0,"Either","806A3945-C60A-44AF-AFE4496F0FCBE07D"
608,"Herman's Landscape Supplies",,"PO Box 159",,"Jordan","MN","55352","United States","952-492-2783","952-492-6020",,"http://www.hermanslandscape.com","Lindzey Lenzen","952-492-2783","lindzey@hermanslandscape.com",,,,,0,0,0,0,0,"Surfacing","7F0BEB7D-ED6E-421F-8FF48C3D8FBFC8D5"
609,"K & D Forest Products, Inc.",,"PO Box 312",,"Panguitch","UT","84759","United States","(435) 676-8194","(435) 676-2520",,"http://www.kdloghomes.com","Kevin Frandsen","(435) 676-8194","kdforest@color-country.net",,,,,0,1,0,0,0,"Either","BF43D21A-84ED-4997-92F0E2E0E494D640"
610,"Millard Industries, Inc. dba Eplayz/All American M",,"205 Teramar Way",,"El Paso","TX","79922","United States","(800) 303-7909","(915) 585-6909",,"http://www.eplaygrounds.com","Robert Millard","(915) 585-6336","robert@eplaygroundz.com",,,,,0,0,1,0,0,"Either","C83F355D-86FA-4EC8-9C1ECE51F3424DAE"
611,"Playground Planners, Inc.",,"14 Laurentide Road",,"Ottawa","ON","K2K 6T5","Canada","(613) 828-5502","(613) 829-7372",,"http://www.playgroundplanners.com","Debbie Beck","(613) 828-5502","debbie.beck@playgroundplanners.com",,,,,0,1,0,1,1,"Surfacing","12E95434-7DDA-49EC-86EC6FB8B6CFAD9B"
612,"Kempfer Sawmill, Inc.",,"6254 Kempfer Road",,"Saint Cloud","FL","34773","United States","(407) 892-2955","(407) 892-4420",,"http://www.kempfercattleco.com/sawmill","Becky Burnette","(407) 892-2955","kempfer@kempfercattle.com",,,,,0,1,0,0,1,"Surfacing","698E8F47-B3C8-4B9B-9D3F56B238B28DD6"
613,"P & R Trucking & Excavating, LLC",,"8710 N. Strole Place",,"West Terre Haute","IN","47885","United States","(812) 460-1954","(812) 535-3997",,,"Beth Parker","(812) 460-1954","bparker2630@icloud.com",,,,,0,1,0,1,1,"Surfacing","1E20B69F-932E-4546-A9B7ECB96C7EE41C"
614,"Liben Group Wenzhou International Trade Corporatio",,"Yangwan Industralial Area","Qiaoxia Town, Yongjia","Wenzhou","Zh","325106","China","86-577-66977777","86-577-66977778",,"http://www.libenplay.com","Milo Xu","86-577-66977777","exp02@libenplay.com",,,,,0,0,0,0,0,"Equipment","333D87E0-460F-4F93-B5F168711250D8B8"
615,"Superior International Industries, Inc.",,"210 Industrial Court",,"Carrollton","GA","30117","United States","678-390-1924","770-832-6687",,"http://www.srpplayground.com","Sherri Pope","678-390-1924","spope@siibrands.com",,,,,0,1,0,1,1,"Equipment","E8EC0C28-7E92-457C-A6CE55E5D1E04D3C"
616,"Dan Como and Sons, Inc.",,"3 Como Court",,"Towaco","NJ","07082","United States","973-263-0440","973-263-4131",,"http://www.themulchdepot.com","Dan Como","973-263-0440","mulchdepotnj@gmail.com",,,,,0,1,0,1,1,"Surfacing","4ACC3C08-A999-4227-9EBE4F73B89ABF2E"
617,"West River Valley RSWMD",,"24087 Hwy 164",,"Clarksville","AR","72830","United States","(479) 754-7475","(479) 754-7524",,,"Jacob Gould","(479) 754-7475","jgould@greensourcerecycling.org",,,,,0,0,0,1,0,"Surfacing","6B7E088C-54DA-40CB-819B30ED432CAA26"
618,"K & B Transport",,"3900 East New York Avenue",,"Deland ","FL","32724","United States","(386) 734-3553","(386) 943-9643",,"www.kbmulch.com","Amanda Gogel","(386) 734-3553","kandblandscape@wildblue.net",,,,,0,0,0,0,0,"Surfacing","35C038F3-ED92-429D-B97B60EDCC26C9B6"
619,"Themed Concepts",,"794 15th Street SW",,"Forest Lake","MN","55025","United States","(651) 289-8400","(651) 778-1885",,"www.themedconcepts.com","Lisa-Marie Klooster","(651) 289-8400","lisamarie@themedconcepts.com",,,,,0,1,0,0,0,"Either","64C1E9D3-E0BA-435D-9A70935FB62C8F9C"
620,"Playtopia, Inc.",,"PO Box 409",,"Somerset","KY","42502","United States","1-844-KID-PLAY","606-485-4407",,"http://www.playtopiaplaygrounds.com","Tanner Morrow","606-485-4406","info@goplaytopia.com",,,,,0,1,0,1,1,"Equipment","87697D46-86F0-43BD-9D9C7A5F4ADDAEBE"
621,"The Mulch Center",,"21457 Milwaukee Avenue",,"Deerfield","IL","60015","United States","(847) 459-7200","(847) 229-0219",,"www.mulchcenter.com","Nancy Taylor","(847) 459-7200","Nancy@Nancytaylor.net",,,,,0,1,0,0,0,"Either","04AF8F5F-DE8F-4544-A20F097417D0C185"
622,"Park and Sports, Inc.",,"14017 S. Gessner Road, Suite A",,"Missouri City","TX","77489","United States","(832) 544-7624","(832) 203-1735",,"http://www.parkandsports.com","Eray AYAN","(832) 544-7624","info@parkandsports.com",,,,,0,0,0,1,0,"Equipment","83BBD25D-19C1-44B5-BC24E8E4B9C2C8C7"
623,"Juegos Infantiles Reylaz, S.A.",,"Calzada de Tlalpan 1949","Col. Parque San Andres","Mexico, D.F.",,"04040","Mexico","+52 (55) 5544 4790",,,"www.reylaz.com.mx","Maricela","Salazar Gonzale","maricela@reylaz.com.mx",,,,,0,0,0,0,0,"Either","1C92A9CE-B133-4BC3-83EBE5A0D9A68173"
624,"Windsor Rubber Processing, Ltd.",,"1680 Kildare Road",,"Windsor","ON","N8W 2W4","Canada","(519) 258-8473","(519) 258-8479",,"www.windsorrubberprocessingltd.com","Peter Valente","(519) 258-8473","pv@windsorrubberprocessingltd.com",,,,,0,0,0,0,0,"Surfacing","5790ADC6-0CBD-4DE3-8A2A7D75FB23CF1C"
625,"Safety 1st Playgrounds",,"23 Washington Avenue",,"Hicksville","NY","11801","United States","(516) 713-5980","(516) 320-8979",,,"Steven Harcourt","(516) 713-5980","harcourtint@gmail.com",,,,,0,0,0,1,0,"Surfacing","2247E8F8-CE7E-4F34-BCE9C9967F7B5597"
626,"Employee Owned Nursery Enterprises, Ltd., dba Orga",,"PO Box 908",,"Del Valle","TX","78724","United States","(512) 276-1211","(512) 276-9165",,"www.organicsbygosh.com","Phil Gosh","(512) 276-1211","phil@organicsbygosh.com",,,,,0,0,0,0,0,"Surfacing","764B5FB0-5656-4112-A2F84A076186FAE7"
627,"Greendell Landscape Solutions",,"749 West State Road 42",,"Mooresville","IN","46158","United States","(317) 996-2826","(317) 996-2032",,"www.greendelllandscape.com","Vicki Leak","(317) 996-2826","vleak@greendelllandscape.com",,,,,0,1,0,1,1,"Surfacing","38584C06-7696-4945-B6E49DE34F837044"
628,"Mulch Services, Inc.",,"550 York Road",,"Blacksburg","SC","29702","United States","(864) 219-6014","(864) 219-6024",,"http://www.mulchsrvs.com","Kiley Mullinax","(864) 219-6014","kmullinax@mulchsrvs.com",,,,,0,1,0,1,1,"Surfacing","6989459F-5CB0-442E-9C0B6FC757DD6F7B"
629,"Tiger Sports Americas dba Tiger Turf Americas",,"1311 Broadway Street",,"Dayton","TN","37321","United States","(770) 306-4265",,,"http://tigerturf.com/us/","Doug DeMasie","(770) 306-4265","d.demasie@TENCATE.com",,,,,0,1,0,1,1,"Surfacing","61DCC4A0-4C6D-4BC8-96DDD669EFEA71CB"
630,"Just Wood and Mulch, LLC",,"14121 Garrett Road",,"Houston","TX","77044","United States","281-456-8524","281-456-8275",,"www.justwoodandmulch.net","Allan Boxley","281-456-8524","K2500@aol.com",,,,,0,0,0,0,0,"Surfacing","2959AF44-FAEB-455C-A869DD191A098EAA"
631,"Townsend Lumber, Inc.",,"1250 Jackson Side Road, RR#2",,"Tillsonburg","ON","N46 4G7","Canada","519-842-8234","519-842-9467",,"www.townsendlumber.com","Mike Penner","519-842-7381","mpenner@townsendlumber.com",,,,,0,1,0,1,1,"Surfacing","64EDF834-196D-464F-84F058092275C58F"
632,"Timber Creek Recycling, LLC",,"2623 S. Hillis Place",,"Meridian","ID","83642","United States","208-350-0338","208-884-5777",,"www.timbercreekrecycling.com","Mike Murgoitio","208-350-0338","mikemurgoitio@hotmail.com",,,,,0,0,0,0,0,"Either","BA8CF9C7-9A1A-4081-92967DD278D12F7B"
633,"Arihant Industrial Corporation, LTD",,"Arihant Complex, N.H. NO-8","Sativali, Vasai-E, Dist-Thane","Mumbai","Ma","401208","India","+91 7507778271-74",,,"www.arihant.com","Rajen S. Shah","+91 7507778271-","rajen@arihant.com",,,,,0,0,0,0,0,"Either","41EB641E-E3CA-4490-BBDC56BAF8771A9A"
634,"A-Z Playground Safety, Inc.",,"1840 W. Seldon Way",,"Phoenix","AZ","85021","United States","602-421-9755","888-660-9898",,"http://azplaygroundsafety.com/","Tim Davis","602-421-9755","info@azplaygroundsafety.com",,,,,0,1,1,0,0,"Either","36B0B23F-0868-4641-9C6672E258FB7138"
635,"Odd Job The Barn, Inc.",,"11643 Cumming Highway",,"Canton","GA","30115","United States","(770) 886-0040","(770) 886-0065",,"www.barnoddjob.com","Annette Morrison","(770) 886-0040","oddjobtree@gmail.com",,,,,0,0,0,0,0,"Surfacing","E278A31E-FD37-41E4-AAFD22BCB4FC06BA"
636,"FallZone Safety Surfacing",,"1839 Candlewood Drive",,"Avon","OH","44011","United States","888-808-1587","888-808-1587",,"www.fallzonesafetysurfacing.com","Michael Grillo","888-808-1587","fallzonesafetysurfacing@gmail.com",,,,,0,0,1,0,0,"Either","46B34A58-59C1-459E-9CABF637340F0804"
637,"Connecticut Mulch Distributors, Inc.",,"70 Mullen Road",,"Enfield","CT","06082","United States","(860) 698-9579","(860) 698-9581",,"www.ctmulch.com","Kurt Lindeland","(860) 698-9579","kurt@ctmulch.com",,,,,0,1,0,1,1,"Surfacing","176A188F-9BA5-417D-BCA8231F48A27D9F"
638,,,"200 Market Street",,,,,,,,,,,,,,,,,0,0,0,0,0,"Either","AAAC3116-095F-4CF0-95D466013D3AC2DC"
639,"Barry's Turf Services",,"42160 State Street",,"Palm Desert","CA","92211","United States","760-834-8079",,,"www.turfstoredirect.com","Barry Schieferstine","760-834-8079","barry@turfstoredirect.com",,,,,0,0,1,0,0,"Either","647886A2-EDEF-4101-8EDFE04A341D88BD"
640,"Granuband Macon, LLC",,"612 Blees Industrial Drive",,"Macon","MO","63552","United States","660-385-7156","660-385-7158",,"www.granubandllc.com","Maarten van Randeraat","660-385-7156","mvranderaat@granuband.com",,,,,0,0,0,1,0,"Surfacing","CAFC5984-3721-457A-8B5919536B399C68"
641,"Nanjing Wande Play Facilities Co., LTD",,"South District of LishuiEconomic Development Zone",,"Nanjing","Ji","211200","China","+86 25 56218381","+86 25 56218382",,"www.wandeplay.com","Leo Lin","+86 25 56218381","sales6@wandeplay.com.cn",,,,,0,1,0,0,0,"Either","E18CAC9E-EAE5-4747-98EDD1E06C5AB5A9"
642,"Seaway Timber Harvesting, Inc.",,"15121 State Highway 37",,"Massena","NY","13662","United States","(315) 769-5970","(315) 769-7409",,,"Mary Lou Babcock","(315) 769-5970","mlbabcock@twcny.rr.com",,,,,0,0,0,0,0,"Surfacing","495BFC0F-C948-4B16-8B69BFB2967E898C"
643,"Softline Solutions AB Inc.",,"4611 Morris Road",,"Edmonton","AB","T6B 2V9","Canada","(780) 462-3133","(780) 462-0863",,"http://www.softlinesolutions.net/","Davina McIntyre","(780) 462-3133","davinam@softlinesolutions.net",,,,,0,1,0,1,1,"Surfacing","F6FAA670-C116-449F-83FECA657E109E4C"
645,"APC Brands, Inc.",,"230 E. Hunt Street, Suite 200",,"McKinney","TX","75069","United States","800-381-4491","888-934-6441",,"www.APCbrands.com","Marc Parker","800-381-4491","sm@apcbrands.com",,,,,0,1,1,0,0,"Either","E4701DBF-08B9-4890-A8042872F7EC8FC5"
646,"American Parks Company",,"230 E. Hunt Street, Suite 200",,"McKinney","TX","75069","United States","800-381-4491","888-934-6441",,"www.americanparkscompany.com","Marc Parker","800-381-4491","sm@americanparkscompany.com",,,,,0,1,1,0,0,"Either","C8C3EEFE-D47A-437F-83574F99843C3D9F"
647,"Atelier Go-Elan, Inc.",,"630 Boul Becancour",,"Becancour","QC","G9H 3S7","Canada","819-298-3431","819-298-2299",,"http://goelan.com/","Sylvain Forand","819-298-3431","sforand@goelan.com",,,,,0,1,0,1,1,"Equipment","F030E93E-8773-42C8-8EFEC077E3B44888"
648,"Flexiturf, LLC",,"PO Box 19141 Stone Oak Hwy","Suite 104","San Antonio","TX","78258","United States","210-355-2479",,,"www.flexiturf.com","Kenny Alvidrez","210-355-2479","Flexiturf@icloud.com",,,,,0,0,0,0,0,"Either","18B276A6-5E01-41EB-8BB3D506DF5EC2C5"
649,"PlayMax Surfacing, Inc.",,"PO Box 77372",,"Corona","CA","92877","United States","(951) 250-6039","(951) 356-6550",,"www.playmaxsurfacing.com","Chris Wolf","(951) 250-6039","cwolf@playmaxsurfacing.com",,,,,0,1,0,1,1,"Surfacing","99246A79-CB8E-4FA2-8E205D30F2C4EAF0"
650,"The Mazza Mulch Company",,"3230A Shafto Road",,"Tinton Falls","NJ","07753","United States","(732) 922-9073","(732) 922-9017",,"http://www.mazzamulch.com","Alex Sabatino","(732) 922-9292","alex@mazzamulch.com",,,,,0,1,0,1,1,"Surfacing","046E9D7E-1EBD-4CBE-9C39FC60EAF9C415"
651,"Capitol Landing Home & Garden Center, LLC",,"910 Capitol Landing Road",,"Williamsburg","VA","23185","United States","757-221-6669","804-966-5938",,"http://www.capitollandingmulch.com ","Henry Haupt","804-815-9235","henry.haupt@aol.com",,,,,0,1,0,1,1,"Surfacing","55810B5D-70AE-44C8-82036A6975E6A2C8"
652,"Precision Landscape & Tree, Inc.",,"50 South Owasso Blvd. East",,"Little Canada","MN","55117","United States","(651) 484-2726","(651) 482-8191",,"www.precisiontreemn.com","Cory Groholski","(651) 484-2726","cory@precisiontreemn.com",,,,,0,1,0,1,1,"Surfacing","419E4E98-1EBF-40F4-9B3001CDB45E1247"
653,"Materiaux Paysagers Savaria Ltee, Savaria Landscap",,"950, de Lorraine",,"Boucherville","QC","J4B 5E4","Canada","450-655-6147","450-655-5133",,"www.savaria.ca","Emilie Chagnon","450-655-6147","emiliechagnon@savaria.ca",,,,,0,1,0,1,1,"Surfacing","F648F4F5-4754-4ABD-BE346C88FA2F724D"
654,"Amex Surface Installer, LLC",,"9115 Smith Road",,"Litchfield","OH","44253","United States","216-798-1606","330-667-1256",,"www.amexsurfaceinstaller.com","Arnoldo Moya","216-798-1606","amex_surface@hotmail.com",,,,,0,1,0,1,1,"Either","AE697427-A16C-4F59-B68A9A8434183128"
655,"Huck Seiltechnik GmbH",,"Dillerberg 3",,"Asslar-Berghausen","He","35614","Germany","0049 6443 8311-0","0049 6443 8311-79",,"www.huck.net","Wolfgang Keiner","0049 6443 8311-","Wolfgang.Keiner@huck.net",,,,,0,1,0,1,1,"Equipment","2170D479-4D33-4FD8-B8C0C9796C09000F"
656,"PSS Surfacing, Inc.",,"273 S. Pershing Avenue #1",,"San Bernadino","CA","92408","United States","(909) 381-1014","(909) 383-2847",,"www.psssurfacing.com","Raquel Rocha","(909) 381-1014","raquel@psssurfacing.com",,,,,0,0,0,0,0,"Either","5DBBF6F1-EFA6-45E3-9880EADB61D721DC"
657,"SAN-EI Corporation",,"6-182-1 Higashihatsuishi",,"Nagareyama","Ch","2700114","Japan","+81 4 7156 8588",,,"www.sanei-net.co.jp/index.html","Fumio Hirayama","+81 4 7156 8588","hirayama@sanei-net.co.jp",,,,,0,0,0,0,0,"Either","1E07AFC2-51DE-4415-94AAA658D4AA1E8E"
658,,,,,,,,,,,,,,,,,,,,0,0,0,0,0,"Either","7F043408-1D37-4541-886DD75BAA74E6C6"
659,"Ropecamp Co., Ltd.",,"76-21, Sandan 5-ro","Jeonggwan-myeon","Gijangkun","Bu","619961","South Korea","82517275616","82517275617",,"www.ropecamp.com","Gangho Yoon","82517275616","robert@ropecamp.com",,,,,0,0,0,0,0,"Either","66389348-5B4D-4FF0-8DB5AA98D1ACD81B"
660,"Dixie Marketing and Playground Manufacturing",,"PO Box 634",,"Hartselle","AL","35640","United States","(256) 784-5994","(256) 784-9180",,"http://dixieplayground.com","Josh Summerford","(256) 784-5994","jsummerford@live.com",,,,,0,0,0,0,0,"Either","55A7436F-4811-4B97-ACAEE93B90597F39"
661,"NVB Playgrounds, Inc. dba PlaygroundEquipment.com",,"3623 N. 700 West",,"Greenfield","IN","46140","United States","800-667-0097","317-245-2375",,"www.playgroundequipment.com","Kevin Van Wye","800-667-0097","kevin@playgroundequipment.com",,,,,0,1,0,0,0,"Either","C484AED7-DCE3-4701-9046E188D3FFE2D0"
662,"Bushels & Blooms",,"3530 Bowling Green Road",,"Franklin","KY","42134","United States","(270) 586-6155","(270) 598-5120",,,"Nancy Crafton","(270) 586-6155","bushelsblooms@aol.com",,,,,0,1,0,1,1,"Surfacing","1F21E6EC-3F3D-462B-8941CF70BD853545"
663,"Holzhof srl",,"Via Rupe, 33",,"Mezzolombardo","TN","38017","Italy","+39 0461 601501","+39 0461 604013",,"http://www.holzhof.com","Sabrina Dalsant","+39 0461 601501","sabrina@holzhof.com",,,,,0,1,0,0,0,"Either","5CC07942-09EE-4A9B-B7F5C4E0F40AFD03"
664,"Peggy Payne & Associates, Inc.",,"146 Broadway",,"Hawthorne","NY","10532","United States","(914) 747-3237","(914) 747-3965",,,"Peggy Payne","(914) 747-3237","ppaplay@aol.com",,,,,0,1,1,0,0,"Either","11E48040-786F-4259-A497C30E7C064E50"
665,"AAA Playgrounds",,"3701 Spring Hill Drive",,"Edmond","OK","73013","United States","(405) 822-1109","(405) 330-3637",,"http://www.aaaplay.com/","Wade Inman","(405) 822-1109","winman2@cox.net",,,,,0,1,0,1,1,"Surfacing","8BBD173A-A4B0-4F0A-AFAD196E492C83F4"
666,"Apex Nurseries, Inc.",,"2925 NC Highway 751",,"Apex","NC","27523","United States","(919) 362-8315","(919) 387-9455",,,"Will Copeland","(919) 362-8315","apexnurseriesinc@gmail.com",,,,,0,1,0,1,1,"Surfacing","636D6A7C-6F85-453B-AC99A6BE5FDF63C4"
667,"Gotham Poured Rubber Corporation",,"1749 Julian Avenue",,"San Diego","CA","92113","United States","(619) 455-5470","(619) 795-7330",,"www.gothamsurfacing.com","John Rooney","(619) 455-5470","john@gothamsurfacing.com",,,,,0,0,0,1,0,"Surfacing","60B25364-3C3C-44AE-AAD2216D3DE3F49F"
668,"Sports Labs USA",,"155 River Rd Unit 2",,"Bow","NH","03304","United States","603-715-5453",,,"www.sportslabsusa.com","Mike Gentile","603-715-5453","MikeG@SportsLabsUSA.com",,,,,0,0,1,0,0,"Either","173B9028-7076-4404-9F6EC92021F38130"
669,"Turf-N the World, Inc.",,"2908 Rubidoux Blvd.",,"Riverside","CA","92509","United States","(951) 686-2270","(951) 686-2327",,"www.turfntheworld.com","Jileen Meyer","(951) 686-2270","jmeyer@turfntheworld.com",,,,,0,1,0,1,1,"Surfacing","4604AE05-B6FB-4D05-A780EAC4C5D46058"
670,"NRT Canada, Inc.",,"28 Mill Street",,"Tilbury","ON","N0P 2L0","Canada","519-682-2764","519-682-0524",,"http://www.newrubbertech.com","Tom Sasson","519-682-2764","tsasson@newrubbertech.com",,,,,0,1,0,0,0,"Surfacing","F3C97893-B046-4A12-A16CA5251F2A8510"
671,"Barky Beaver Mulch",,"9980 Clay County Hwy",,"Moss","TN","38575","United States","800-737-3646","931-258-3280",,"http://www.barkybeaver.com/","Mary Pennington","800-737-3646","mary.barkybeaver@gmail.com",,,,,0,1,0,1,1,"Surfacing","EB182A8B-E6D5-46A4-9D26380BB4C1A935"
672,"Reka Setia Industries Sdn. Bhd.",,"No. 18 Jalan TPP 5/2,","Taman Perindustrian Puchong","Puchong","Se","47100","Malaysia","+603 80600048","+603 80600049",,"www.rekasetia.com","Jamie Lim","+603 80600048","jamie@rekasetia.com",,,,,0,1,0,0,0,"Either","BA0D215C-6E22-4AB7-912C8D0F874164AB"
673,"Martin Mulch Products, LLC",,"55 Woodcrest Drive",,"Ephrata","PA","17522","United States","(717) 733-1602","(717) 733-8466",,,"Rhoda Graybill","(717) 733-1602","rgraybill@martinmulch.com",,,,,0,1,0,1,1,"Surfacing","451C2342-82D4-4F5E-9129B7544160756B"
108,"HAGS Aneby AB",,"Box 133, SE-578-23 Aneby",,"Hags","  ","SE578 23       ","Sweden","46-380-473 67","46-380-451 26",,"http://www.hags.com","Anders Klingberg","46-380-473 67  ","a.klingberg@hags.com",2,"06/02/2004 08:35:29 AM",0,"03/19/2012 01:01:26 PM",0,1,0,0,0,"Equipment",
674,"Miroad Rubber, USA",,"182 Whitman Avenue",,"Edison","NJ","08817","United States","630-460-1191","732-707-3276",,"http://www.miroadusa.com","Chuck Toth","630-460-1191","chuck@miroadusa.com",,,,,0,1,0,0,0,"Either","F61281A7-2AB2-49BD-B138295FBA16ED17"
675,"CatalinaCarpetMills,Inc,CatalinaHome dbaSmartTurf",,"14418 Best Avenue",,"Sante Fe Springs","CA","90815","United States","(800) 421-6723","(562) 404-3925",,"http://www.SmartTurf.net","Amy Word","(800) 421-6723","aword@catalinahome.com",,,,,0,0,0,0,0,"Either","148C09F3-F4ED-47C4-82E7D8686C797D1F"
676,"Artificial Turf Supply, LLC",,"810 Los Vallecitos Blvd., Suite B",,"San Marcos","CA","92069","United States","(877) 525-8873","(706) 659-4260",,"http://www.artificialturfsupply.com","David Barbera","(877) 525-8873","david@artificialturfsupply.com",,,,,0,1,0,0,0,"Either","E5E1C9C8-F69D-4994-8724DE2F511B6EDC"
677,"Recycled Rubber Products, LLC",,"175 S. Desplaines Street",,"Joliet","IL","60436","United States","(815) 436-5587","(815) 722-7131",,"http://www.discountrubbermulch.com","Steve Huizinga","(815) 436-5587","steveh@recycledrubber.biz",,,,,0,1,0,1,1,"Surfacing","10581BA4-43D1-48D8-8C37786C1971E2C9"
678,"Central Tree and Landscape Mulch, LLC",,"1590 W. Algonquin Road #127",,"Hoffman Estates","IL","90192","United States","(847) 989-9048","(847) 551-9291",,"http://www.centraltree.net","Matt Damico","(847) 989-9048","office@centraltree.net",,,,,0,1,0,1,1,"Surfacing","B61B9167-5FE2-410F-9D198B1E8070FBB3"
679,"Les Epandages Robert",,"770 rue Gaudette",,"Saint-Jean-sur-Richelieu","QC","J3B 1L7","Canada","(450) 347-3577","(450) 347-5595",,"http://www.lepoussevert.com","Robert Bariteau","(450) 347-3577","info@lesepandagesrobert.ca",,,,,0,0,0,1,1,"Surfacing","27C1381C-7C6E-4154-864CD75D63414E44"
680,"BINASCAPE (M) Sdn Bhd",,"No. 8, Latitude, Jalan Subang 7, Taman Perindustrian Subang,",,"Subang Jaya","Se","47600","Malaysia","+603 - 8081 9205","+603 - 8081 9204",,"www.binascape.com.my","ms.nana","+601 9270 1255","bscapesb@yahoo.com.my",,,,,0,0,0,0,0,"Either","8EFB3689-9B11-4847-8F2F930E3EC58116"
681,"Metzler Forest Products, LLC",,"26 Timber Lane",,"Reedsville","PA","17084","United States","(717) 667-2924","(717) 667-9769",,"http://www.mfp.bz","Randy Hettinger","(717) 667-2924","rhettinger@mfp.bz",,,,,0,1,0,1,1,"Surfacing","64976210-B167-4744-926F781B5B25BAC0"
682,"Kaufman Mulch, Inc.",,"3988 CR 135",,"Millersburg","OH","44654","United States","(330) 893-3676","(330) 893-3686",,"http://www.kaufmanmulch.com","Nelson Burkholder","(330) 893-3676","nelson@kaufmanmulch.com",,,,,0,1,0,1,1,"Either","A0A1601B-44C8-4450-9A1F5275A99E1C95"
683,"Adventure Turf",,"PO Box 194",,"Brookfield","WI","53008","United States","414-587-5521","414-386-4620",,"www.adventureturf.com","Mike Dallman","414-587-5521","mdallmann@mjdsllc.com",,,,,0,0,0,0,0,"Either","2C6F325C-4AB7-4EC1-993E6673D9A50116"
684,"ABA Science Play L.T.D.",,"PO Box 1714 ",,"Macabim-Rrut",,"7179904","Israel","+972 3 607 0306",,,"http://www.aba-scienceplay.com",,"+972 3 607 0306","office@microdel.co.il",,,,,0,0,0,0,0,"Either","4ABFDDE4-408D-4D48-AF8D1DC31674819A"
685,"USA Mulch, LLC",,"16575 Gator Road",,"Fort Myers","FL","33912","United States","239-489-3455","239-489-1201",,"http://www.usamulchllc.com","Philip Destaven","239-489-1201","usamulchllc@aol.com",,,,,0,1,0,1,1,"Surfacing","879C245C-7885-41D5-94FFCD575B5F8697"
686,"Dunning Playground Surfacing",,"105 Brickyard Road",,"Farmington","CT","06032","United States","860-677-1616","860-674-0668",,"http://www.dunningplaygroundsurfacing.com","Nicholas McGuffie","860-674-0668","nmcguffie@dunningplaygroundsurfacing.com",,,,,0,1,0,1,1,"Surfacing","56435BF9-AE42-4329-8CF34B116C806B53"
687,"BYO Recreation",,"150 Playcore Drive SE",,"Fort Payne","AL","35967","United States","256-997-5241",,,"http://www.byoplayground.com","Wes Sutton","256-997-5241","wsutton@playcore.com",,,,,0,1,0,1,1,"Equipment","37DBACBA-812C-46F3-B6C14913DFE86221"
688,"Saratoga Forest Management",,"PO Box 1209",,"Saratoga","WY","82331","United States","307-326-3082","307-326-3177",,"http://www.SaratogaFM.com","Clint Georg","307-326-3082","Clint.Georg@SaratogaFM.com",,,,,0,1,0,1,1,"Surfacing","AA7B1C54-4287-4928-964E0077A0EBF1BC"
689,"Wood Resource Recovery LLC",,"6424 NW 18th Drive",,"Gainesville","FL","32653","United States","352-241-5300",,,"http://www.GastonTDR.com","Levin Gaston","352-241-5300","Levin@GastonTDR.com",,,,,0,0,0,0,0,"Either","D9E9CFD7-076F-450C-A4E2CDD38F4A8518"
690,"Safe Zone Playground Wood Fiber",,"PO Box 1151",,"Mesilla","NM","88046","United States","575-932-9189",,,,"Nate Tierney","575-932-9189","Ashley@groundbreakers-llc.com",,,,,0,0,1,0,0,"Either","2060EC2F-EBC4-41EF-AEF547BE2BD99558"
691,"Griffis Lumber LLC",,"9333 NW 13th Street",,"Gainesville","FL","32653","United States","352-372-9965",,,"http://www.GriffisLumber.com","Levin Gaston","352-372-9965","Levin@GastonTDR.com",,,,,0,1,0,1,1,"Surfacing","0985FB72-C817-4D2A-85C24144DC1C9124"
692,"Hope Timber Mulch, Inc.",,"PO Box 502",,"Granville","OH","43023","United States","740-404-2097","740-344-9361",,"http://www.hopetimber.com","Tim Harvey","740-404-2097","timharvey@hopetimber.com",,,,,0,0,0,1,0,"Surfacing","FF93854B-736C-4BDB-ADC11ECAC7741EE6"
693,"Taureans Concept Sdn Bhd",,"A-3-7, Jalan OS, Taman Serdang Perdana",,"Seri Kembangan, Selangor",,"43300","Malaysia","+603-89598848","+603-89539142",,"http://www.primelay.com","Debarshi Basak","+603-89598848","deb@primelay.com",,,,,0,1,0,0,0,"Either","821163F1-61CF-4FDE-A2465E9D58EB691B"
694,"Mulch Outfitters",,"PO Box 846",,"Dalton","GA","30722","United States","866-685-2438","678-288-7927",,"http://www.mulchoutfitters.com","Andy Erler","866-685-2438","andy.erler@mulchoutfitters.com",,,,,0,1,0,1,1,"Surfacing","95557277-EC3D-4FD1-9DF59862572F6873"
695,"T.H. Blue, Inc.",,"PO Box 97",,"Eagle Springs","NC","27242","United States","800-382-2583","910-673-7179",,"http://www.thbluemulch.com","Layne McNeill","800-382-2583","laynethblue@earthlink.net",,,,,0,1,0,0,0,"Either","10EFDA5A-5E3F-4F60-8798AF426C4CA1E3"
696,"Oxford Pallet & Recyclers, LTD",,"285725 Airport Road",,"Norwich","ON","N0J 1P0","Canada","519-468-3400","519-468-3401",,"http://www.oxfordpallet.com","Theo Bouwheer","519-468-3400","theo@oxfordpallet.com",,,,,0,0,0,0,0,"Either","E790E288-C4DD-4E47-8C8445FA44E595A7"
697,"Wm. Biers, Inc.",,"100 Port Street",,"Albany","NY","12202","United States","518-434-2747","518-434-2754",,"http://www.wmbiers.com","William Biers","518-434-2747","wmbiers10@yahoo.com",,,,,0,1,0,1,1,"Surfacing","6B5EDE5D-8C4E-4D9D-9EC4F4A37C6D7430"
698,"Pliteq, Inc.",,"1370 Don Mills Road, Unit 300",,"North York","ON","M3B 3 N7","Canada","416-449-0049",,,"http://www.pliteq.com","Harleen Singh","416-449-0049","hsingh@pliteq.com",,,,,0,1,0,0,0,"Either","E718360B-9EDA-430C-938580F354F9C7DA"
699,"Lawn-Corps, Inc.",,"PO Box 482114",,"Kansas City","MO","64148","United States","(816) 761-3046","(816) 763-3814",,"http://www.lawncorps.com","Pat Caskey","(816) 761-3046","office@lawncorps.com",,,,,0,1,0,1,0,"Surfacing","DE38E6CC-9C01-45DF-8AB8EF7865E00D3E"
700,"Boyett Timber, Inc.",,"45260 Lacoochee Clay Sink Road",,"Webster","FL","33597","United States","(352) 583-2138","(352) 583-1884",,"http://www.boyetttimbermulch.com","Jerrett Stephens","(352) 583-2138","jerrettmulch@aol.com",,,,,0,1,0,1,1,"Surfacing","A86618E9-57EE-45F2-90974460C35AAFE9"
701,"Bucks Woods, LLC",,"6894 Christanna Hwy",,"Gasburg","VA","23857","United States","434-336-1822","434-577-3170",,,"Stephen L. Wright","434-336-1822","s.wright.12@hotmail.com",,,,,0,1,0,1,1,"Surfacing","BC0B229D-1214-4D04-AC6ACB15CEB27021"
702,"Blackjack Lumber Company, LLC",,"12071 SE Hwy J",,"Stockton","MO","65785","United States","417-276-1122",,,,"Paula Smith","417-276-1122","blackjacklumber@yahoo.com",,,,,0,0,0,0,0,"Either","669A11BF-D56C-4E03-B76A78903786FC56"
703,"Durazo Construction Corporation",,"PO Box 629",,"Tucson","AZ","85702","United States","520-623-1077","520-798-3428",,"http://www.durazoconstruction.com","Mario Durazo, Jr.","520-623-1077","jr@durazoconstruction.com",,,,,0,0,1,0,0,"Either","B142B567-150E-4FAD-8619BECA662070DE"
704,"Schmitz Foam Products, Inc.",,"PO Box 76",,"Coldwater","MI","49036","United States","208-720-7266",,,"http://www.proplayus.com","Gary Carr","208-720-7266","g.carr@schmitzfoam.com",,,,,0,1,0,0,0,"Either","A6C8CE82-6FF6-4DDB-92C163BF5B83C3E5"
705,"Smith Creek, Inc.",,"8991 Louis Smith Road",,"Borden","IN","47106","United States","(812) 903-4038","(812) 903-4035",,"http://www.smithcreek.com","Jeff Roll","(812) 903-4038","jroll@smithcreek.com",,,,,0,1,0,1,1,"Surfacing","6C59128A-FF3B-49DD-8BECCF148D32EF9F"
706,"Everett's Sawmill & Trucking, Inc.",,"329 Mildred Simpson Drive",,"Norfork","AR","72658","United States","(870) 499-7475","(870) 499-7261",,,"Everett Parnell","(870) 499-7475","eeverett@centurytel.net",,,,,0,1,0,1,1,"Either","1C3E689F-1125-458A-8D53177A449AF396"
707,"JMJ Organics, LTD dba Warren's Rock N Mulch",,"PO Box 927",,"Huffman","TX","77336","United States","(281) 354-2789","(281) 354-6357",,"https://www.warrens.us","Bernice Warren","(281) 354-2789","bernice@warrens.us",,,,,0,1,0,0,0,"Either","1100730D-6266-46E8-A894E915145DC4DD"
708,"GPI Outdoor Designs",,"Bay 10 76356 44 Street Southeast",,"Calgary","AB","T2C 2K6","Canada","403-242-8740",,,"http://www.gpioutdoordesigns.com","Angela Renaud","403-242-8740","angela@gpioutdoordesigns.com",,,,,0,1,0,0,0,"Either","29C6DBC0-2A25-4BF7-87EDF9820AA1550A"
709,"Scotland Hardwoods, LLC",,"PO Box 328, 117 Ziegler Road",,"Scotland","CT","06264","United States","860-423-1233","860-423-1969",,"http://www.scotlandhardwoods.com","Scott Rossi","860-423-1233","srossi@rossilumber.com",,,,,0,1,0,1,1,"Either","053B0F5B-53DF-4CBF-BC4E2C41A45690A2"
710,"Timber Ridge Wood Products",,"4335 Abrigador Trail NE",,"Comstock Park","MI","49321","United States","(616) 785-5182",,,"http://www.timberridgewoodproducts.com","Derek Blenman","(616) 785-5182","derek@careformytree.com",,,,,0,1,0,0,0,"Either","289FCAC7-EBCC-4594-84890435153E2F57"
644,"APC Play",,"230 E. Hunt Street, Suite 200",,"McKinney","TX","75069","United States","888-401-6446","888-723-6231",,"www.apcplay.com","Marc Parker","888-401-6446","sm@apcplay.com",,,,,0,1,1,0,0,"Either","B2FAA232-D213-408A-9425B1688C8B6C51"
711,"T & J Excavating and Tree Clearing, LLC",,"8860 Geiser Road",,"Holland","OH","43528","United States","419-865-5308","419-865-0360",,,"Thomas J. Anderson, Jr.","419-865-5308","atcss6055@sbcglobal.net",,,,,0,1,0,0,0,"Either","E8FE7180-A0C0-46AA-BBBF96FEE0BFA285"
712,"Willig Tire Recycling, LLC",,"352 South Street",,"Galion","OH","44833","United States","419-462-2688","855-945-5442",,"http://www.rubbereverything.com","Andrea Gerich","419-462-2688","rubbereverything@hotmail.com",,,,,0,1,0,0,0,"Either","DC016085-ABB4-4CB2-B3E4FD46C1013012"
713,"Tires to Green Recycling, LLC",,"4610 S. Ulster Street, Suite 150",,"Denver","CO","80237","United States","720-222-4770","720-230-5500",,"http://www.t2gr.com","Miguel de Lascurain","720-222-4770","mlc@t2gr.com",,,,,0,1,0,0,0,"Either","E510A9AC-87A0-4288-A2FDBE56264F2796"
714,"Foster Brothers Wood Products",,"PO Box 249",,"Auxvasse","MO","65231","United States","800-392-2271","573-386-2311",,"http://www.fosterbros.com","Travis Foster","800-392-2271","tj@fosterbros.com",,,,,0,1,0,1,1,"Surfacing","D1E6FC61-18AA-43DE-A84C492663D6E204"
715,"Northern Playground Surfacing",,"PO Box 790",,"Palmer","MA","01069","United States","800-232-6132","413-283-5132",,"http://www.northerntree.com","Michael McGuffie","800-232-6132","mmcguffie@northernplaygroundsurfacing.com",,,,,0,1,0,1,1,"Surfacing","F0DA1FA7-8C95-4826-8BE0F107D8BE0E35"
716,"Savanna Pallets, Inc.",,"PO Box 308",,"McGregor","MN","55760","United States","800-348-5708","218-768-3112",,"http://www.savannapallets.com","Chad Raushel","800-348-5708","chadraushel@savannapallets.com",,,,,0,1,0,1,1,"Either","52C6A3FD-7EEF-412E-A1E4EDC4358D1EEC"
717,"Durgin and Crowell Lumber Company",,"PO Box 160",,"New London","NH","03257","United States","603-763-2860","603-763-4498",,"http://www.durginandcrowell.com",,,,,,,,0,1,0,1,1,"Surfacing","AD96EEB1-4B21-4D2F-AECC9F3783847DE1"
414,"T.J. Janca Construction, Inc.",,"2328 N. Batavia Street, #105",,"Orange","CA","92865          ","United States","888-272-1191","714-921-3941",,"http://www.protectturf.com","Linda Mackey","717-921-3940   ","lmackey@protectturf.com",0,"07/21/2009 10:04:42 AM",0,"08/02/2011 10:19:21 AM",0,1,0,1,1,"Surfacing",
718,"Rods C.E. dba Enberg Logging",,"11639 65th Avenue SW",,"Motley","MN","56466","United States","218-820-7546","218-325-6432",,,"Rod Enberg","218-820-7546","renberg2@brainerd.net",,,,,0,1,0,0,0,"Either","E88659B6-D737-43D9-8BB17FD5DE093593"
719,"Realturf USA, LLC",,"7777 Katy Fwy #3101",,"Houston","TX","77024","United States","940-923-9699",,,"http://www.realturfusa.com","Carlos Bataller","940-923-9699B","carlos@realturfusa.com",,,,,0,1,0,0,0,"Either","AF791B08-64E4-48C4-ADAB39659FBE9D3D"
720,"ITS-Sprinturf holdings d.b.a. ProGreen Internation",,"900 Circle 75 Pkwy",,"Atlanta","GA","30339","United States","(888) 440-7888","(678) 903-4031",,"http://www.progreen.com","Laura Everett","(888) 440-7888","leverett@progreen.com",,,,,0,1,0,0,0,"Either","D2492680-AB14-490E-BB78A52145DF66DE"
721,"Stoltzfus Forest Products",,"675 Nottingham Road",,"Peach Bottom","PA","17563","United States","717-940-1185","717-548-9033",,,"Abner Stoltzfus","717-940-1185",,,,,,0,1,0,0,0,"Either","6F8FDFB2-8102-4625-A4D5B390146785A4"
722,"JB Moore LLC",,"1720 Vassar Drive",,"Charleston","SC","29407","United States","(843) 276-3889",,,,"Justin Moore","(843) 276-3889","taylor.jbmoore@gmail.com",,,,,0,1,0,0,0,"Either","C3DDEC27-533F-4812-BAC0B0F3B3AEA389"
723,"Rubaroc",,"181 Edgemoor Road",,"Wilmington","DE","19809","United States","(302) 691-3843","(866) 460-5972",,"http://www.rubaroc.com","Tom Welfare","(302) 691-3843","tom@rubaroc.com",,,,,0,1,0,0,0,"Either","E9611AC9-A34C-4589-814E687957F009F3"
